{
"type": "FeatureCollection",
"name": "boundary-simple1",
"crs": { "type": "name", "properties": { "name": "urn:ogc:def:crs:OGC:1.3:CRS84" } },
"features": [
{"type":"Feature","properties":{"Field":"Field 1"},"geometry":{"type":"Polygon","coordinates":[[[-16.700762320269746,39.126762864769709],[-16.696042054450423,39.126961171216706],[-16.696060782927884,39.119692671403975],[-16.698306325616702,39.119624929828049],[-16.698674850278614,39.119650246027703],[-16.698853159821663,39.119648952540814],[-16.700779047702436,39.119569276450505],[-16.700762320269746,39.126762864769709]]]}}
]
}
