{
"type": "FeatureCollection",
"name": "field-boundary-with-holes",
"crs": { "type": "name", "properties": { "name": "urn:ogc:def:crs:OGC:1.3:CRS84" } },
"features": [
{"type":"Feature","properties":{"FID":0.0},"geometry":{"type":"Polygon","coordinates":[[[-98.992608371152329,43.576964425581366],[-98.992568515347884,43.578363673109536],[-98.992532310688432,43.578377476337366],[-98.992406753732155,43.578387050205663],[-98.991997041559031,43.578372689402634],[-98.990434647814212,43.578370200777741],[-98.989003499390932,43.578367902467534],[-98.986023173744542,43.578339180849014],[-98.983003198532984,43.578300885336247],[-98.982890858098401,43.578267376742623],[-98.982804647301791,43.578165895359426],[-98.982825616491638,43.572912851537346],[-98.98282913633318,43.572030993760954],[-98.982851208533276,43.571981792176331],[-98.98294372418529,43.571933917727655],[-98.983188229836998,43.571914767937557],[-98.984441100662593,43.571919284072067],[-98.984516490269186,43.571919555385648],[-98.985140058746779,43.57192266900536],[-98.985374228745101,43.57192383739109],[-98.986252118685698,43.571928213332505],[-98.987371316467531,43.57193378232418],[-98.988198192097116,43.571937889718491],[-98.988362498087838,43.571938705174247],[-98.988739921062631,43.571941313221508],[-98.989647004550136,43.571947576202824],[-98.989836140258902,43.571948881188284],[-98.991099271410377,43.571957588429306],[-98.991137967647646,43.571957854956764],[-98.991684678284187,43.571954570553011],[-98.99256543059478,43.571949273870615],[-98.992586750310039,43.574083291017985],[-98.992608915893442,43.576301816592007],[-98.992613675636832,43.576778192152858],[-98.992608371152329,43.576964425581366]],[[-98.984846903312018,43.576534478340477],[-98.984708129834033,43.576515330013272],[-98.98453631505177,43.576496181679943],[-98.984384325052034,43.576496181679929],[-98.984298417660895,43.576500968763817],[-98.984186077226354,43.576510542930492],[-98.984073736791771,43.576539265421296],[-98.984047303748369,43.576591923285569],[-98.984034087226647,43.57663979403133],[-98.984053912009202,43.576668516460487],[-98.984113386356924,43.576702025943881],[-98.98415964418291,43.576716387145325],[-98.984192685487201,43.576749896602095],[-98.984212510269771,43.576788193101237],[-98.984232335052326,43.57683606369099],[-98.984219118530632,43.576965314093066],[-98.984219118530632,43.577013184541968],[-98.984252159834909,43.577061054952786],[-98.984298417660895,43.577094564217738],[-98.98432485070434,43.577108925325568],[-98.98439754157377,43.577108925325575],[-98.984495183958714,43.577082400784938],[-98.984644850399533,43.576979314328334],[-98.984825384189264,43.576854966491716],[-98.984866728094588,43.576826489576085],[-98.984899769398865,43.576601497437764],[-98.984846903312018,43.576534478340477]]]}}
]
}
