{
"type": "FeatureCollection",
"name": "ssurgo-simple1",
"xy_coordinate_resolution": 1e-09,
"features": [
{"type":"Feature","properties":{"musym":"3A","mukey":173452.0,"clay":29.389743589743588,"sand":58.646153846153844,"silt":11.964102564102564,"wtr_str":31.22,"muname":"Hoyleton silt loam, 0 to 2 percent slopes","drclssd":"Somewhat poorly drained","drclssw":"Somewhat poorly drained"},"geometry":{"type":"Polygon","coordinates":[[[-16.69593378,39.12244688],[-16.69594139,39.1227644],[-16.69597845,39.12430954],[-16.6961828,39.12415444],[-16.69642038,39.1239116],[-16.69666128,39.12356604],[-16.69670078,39.12346456],[-16.69672963,39.12329444],[-16.69655586,39.12302023],[-16.69621727,39.12259225],[-16.69614958,39.12254352],[-16.69593378,39.12244688]]]}},
{"type":"Feature","properties":{"musym":"14C2","mukey":173442.0,"clay":25.265849282296649,"sand":66.507296650717706,"silt":8.2268540669856449,"wtr_str":24.042,"muname":"Ava silt loam, 5 to 10 percent slopes, eroded","drclssd":"Moderately well drained","drclssw":"Moderately well drained"},"geometry":{"type":"Polygon","coordinates":[[[-16.70095331,39.12681395],[-16.70094458,39.12645099],[-16.7009015,39.12650455],[-16.70087132,39.12657168],[-16.7008697,39.12664585],[-16.70090104,39.12676492],[-16.70095331,39.12681395]]]}},
{"type":"Feature","properties":{"musym":"584B2","mukey":173461.0,"clay":25.414473684210531,"sand":46.73026315789474,"silt":27.855263157894736,"wtr_str":20.34,"muname":"Grantfork silty clay loam, 2 to 5 percent slopes, eroded","drclssd":"Somewhat poorly drained","drclssw":"Somewhat poorly drained"},"geometry":{"type":"Polygon","coordinates":[[[-16.700822133,39.121360688],[-16.700794239,39.120200922],[-16.70079406,39.12023421],[-16.70069628,39.12046112],[-16.70041045,39.12092754],[-16.70037275,39.12103449],[-16.70037391,39.12112762],[-16.70043864,39.1212406],[-16.70053337,39.1213115],[-16.7006024,39.12133525],[-16.70081317,39.12135838],[-16.700822133,39.121360688]]]}},
{"type":"Feature","properties":{"musym":"584B2","mukey":173461.0,"clay":25.414473684210531,"sand":46.73026315789474,"silt":27.855263157894736,"wtr_str":20.34,"muname":"Grantfork silty clay loam, 2 to 5 percent slopes, eroded","drclssd":"Somewhat poorly drained","drclssw":"Somewhat poorly drained"},"geometry":{"type":"Polygon","coordinates":[[[-16.700789544,39.120005687],[-16.700779048,39.11956928],[-16.700534727,39.119572842],[-16.699439602,39.119588816],[-16.69939224,39.11963273],[-16.69943351,39.11974612],[-16.69949958,39.11982249],[-16.69962474,39.11989339],[-16.69974552,39.11992645],[-16.69990096,39.11992933],[-16.70008164,39.11989074],[-16.70044901,39.11975396],[-16.70061358,39.1197708],[-16.70072236,39.11982999],[-16.70075728,39.11989021],[-16.700789544,39.120005687]]]}},
{"type":"Feature","properties":{"musym":"2A","mukey":173445.0,"clay":27.189743589743589,"sand":59.717948717948723,"silt":13.092307692307694,"wtr_str":31.88,"muname":"Cisne silt loam, 0 to 2 percent slopes","drclssd":"Poorly drained","drclssw":"Poorly drained"},"geometry":{"type":"Polygon","coordinates":[[[-16.6970971,39.12328475],[-16.69716801,39.12331308],[-16.69721009,39.12334867],[-16.69723811,39.12341922],[-16.69724088,39.12350797],[-16.69720022,39.12362102],[-16.69700463,39.12391197],[-16.69697211,39.12408366],[-16.69702233,39.12420116],[-16.69730345,39.1245837],[-16.69738509,39.12487754],[-16.69739036,39.12497629],[-16.69737737,39.12511691],[-16.69731225,39.12528668],[-16.69717855,39.12547479],[-16.69699765,39.12566639],[-16.69693434,39.12578347],[-16.6968933,39.12607457],[-16.69695827,39.12644081],[-16.69692342,39.12656583],[-16.69686656,39.12663049],[-16.69662272,39.12676111],[-16.69650102,39.12695448],[-16.69663896,39.12695247],[-16.69844435,39.12692616],[-16.69844859,39.12692045],[-16.69858983,39.12665761],[-16.6986184,39.1265367],[-16.69861806,39.12624943],[-16.69870028,39.12601444],[-16.69882323,39.12587492],[-16.69905776,39.12572048],[-16.69923864,39.12555215],[-16.69928217,39.1254688],[-16.69935973,39.12519864],[-16.69939483,39.12514075],[-16.6995699,39.12496044],[-16.70002246,39.12464075],[-16.70011989,39.1245221],[-16.70016288,39.12437429],[-16.70013298,39.12418282],[-16.69995453,39.12402467],[-16.69976374,39.12380316],[-16.69962326,39.12359355],[-16.69953956,39.12332017],[-16.69952686,39.12310913],[-16.69946626,39.12278073],[-16.69941505,39.12266139],[-16.69933304,39.1225456],[-16.6992342,39.12244582],[-16.69911807,39.12236651],[-16.69878787,39.12215737],[-16.69863825,39.12209667],[-16.6984967,39.12200243],[-16.69836286,39.12183169],[-16.6982582,39.12165014],[-16.69819491,39.1215113],[-16.69809107,39.12117051],[-16.69790585,39.1208822],[-16.6978079,39.12078516],[-16.69737368,39.12048131],[-16.69723939,39.12031502],[-16.69715328,39.12010055],[-16.697142,39.12002651],[-16.69715499,39.11996732],[-16.69728135,39.11974746],[-16.697424261,39.119618187],[-16.696177636,39.119636338],[-16.69586648,39.11964087],[-16.69590816,39.1213788],[-16.69643388,39.12158127],[-16.69668251,39.12172834],[-16.69695952,39.12196568],[-16.69711753,39.12214052],[-16.69725585,39.12240638],[-16.69728279,39.12252251],[-16.69728617,39.1226632],[-16.69723941,39.12295307],[-16.6970971,39.12328475]]]}},
{"type":"Feature","properties":{"musym":"3B","mukey":173453.0,"clay":29.389743589743592,"sand":58.646153846153844,"silt":11.964102564102564,"wtr_str":31.22,"muname":"Hoyleton silt loam, 2 to 5 percent slopes","drclssd":"Somewhat poorly drained","drclssw":"Somewhat poorly drained"},"geometry":{"type":"Polygon","coordinates":[[[-16.70074724,39.12689259],[-16.70095513,39.12688956],[-16.70095331,39.12681395],[-16.70090104,39.12676492],[-16.70074724,39.12689259]]]}},
{"type":"Feature","properties":{"musym":"3B","mukey":173453.0,"clay":29.389743589743592,"sand":58.646153846153844,"silt":11.964102564102564,"wtr_str":31.22,"muname":"Hoyleton silt loam, 2 to 5 percent slopes","drclssd":"Somewhat poorly drained","drclssw":"Somewhat poorly drained"},"geometry":{"type":"Polygon","coordinates":[[[-16.700872227,39.123443268],[-16.700852309,39.12261525],[-16.70083093,39.1226355],[-16.70060072,39.12268907],[-16.70053276,39.12278261],[-16.70050992,39.12289313],[-16.70051395,39.12299269],[-16.70056381,39.12318355],[-16.70063194,39.12327436],[-16.7008334,39.12342491],[-16.700872227,39.123443268]]]}},
{"type":"Feature","properties":{"musym":"3A","mukey":173452.0,"clay":29.389743589743588,"sand":58.646153846153844,"silt":11.964102564102564,"wtr_str":31.22,"muname":"Hoyleton silt loam, 0 to 2 percent slopes","drclssd":"Somewhat poorly drained","drclssw":"Somewhat poorly drained"},"geometry":{"type":"Polygon","coordinates":[[[-16.700852309,39.12261525],[-16.700827627,39.121589102],[-16.70070983,39.12165208],[-16.70062441,39.1217446],[-16.70047577,39.12184861],[-16.70036689,39.121895],[-16.70006031,39.12196287],[-16.69986476,39.12197464],[-16.69955209,39.1219285],[-16.69916906,39.12175563],[-16.69907639,39.12167591],[-16.69899108,39.12151161],[-16.69896243,39.12140075],[-16.69904886,39.12099599],[-16.69903607,39.1209138],[-16.69899462,39.12082546],[-16.69891493,39.1207447],[-16.698816,39.12069235],[-16.69838731,39.12056601],[-16.69823537,39.12049354],[-16.69814262,39.12039143],[-16.6980591,39.1202326],[-16.69802929,39.12011004],[-16.69803082,39.12003675],[-16.69806369,39.1199313],[-16.69823194,39.11978371],[-16.69858606,39.119639],[-16.69872887,39.11961608],[-16.69939224,39.11963273],[-16.699439602,39.119588816],[-16.697424261,39.119618187],[-16.69728135,39.11974746],[-16.69715499,39.11996732],[-16.697142,39.12002651],[-16.69715328,39.12010055],[-16.69723939,39.12031502],[-16.69737368,39.12048131],[-16.6978079,39.12078516],[-16.69790585,39.1208822],[-16.69809107,39.12117051],[-16.69819491,39.1215113],[-16.6982582,39.12165014],[-16.69836286,39.12183169],[-16.6984967,39.12200243],[-16.69863825,39.12209667],[-16.69878787,39.12215737],[-16.69911807,39.12236651],[-16.6992342,39.12244582],[-16.69933304,39.1225456],[-16.69941505,39.12266139],[-16.69946626,39.12278073],[-16.69952686,39.12310913],[-16.69953956,39.12332017],[-16.69962326,39.12359355],[-16.69976374,39.12380316],[-16.69995453,39.12402467],[-16.70013298,39.12418282],[-16.70016288,39.12437429],[-16.70011989,39.1245221],[-16.70002246,39.12464075],[-16.6995699,39.12496044],[-16.69939483,39.12514075],[-16.69935973,39.12519864],[-16.69928217,39.1254688],[-16.69923864,39.12555215],[-16.69905776,39.12572048],[-16.69882323,39.12587492],[-16.69870028,39.12601444],[-16.69861806,39.12624943],[-16.6986184,39.1265367],[-16.69858983,39.12665761],[-16.69844859,39.12692045],[-16.69844435,39.12692616],[-16.7007087,39.12689315],[-16.70074724,39.12689259],[-16.70090104,39.12676492],[-16.7008697,39.12664585],[-16.70087132,39.12657168],[-16.7009015,39.12650455],[-16.70094458,39.12645099],[-16.700916286,39.125274826],[-16.700872227,39.123443268],[-16.7008334,39.12342491],[-16.70063194,39.12327436],[-16.70056381,39.12318355],[-16.70051395,39.12299269],[-16.70050992,39.12289313],[-16.70053276,39.12278261],[-16.70060072,39.12268907],[-16.70083093,39.1226355],[-16.700852309,39.12261525]]]}},
{"type":"Feature","properties":{"musym":"3B","mukey":173453.0,"clay":29.389743589743592,"sand":58.646153846153844,"silt":11.964102564102564,"wtr_str":31.22,"muname":"Hoyleton silt loam, 2 to 5 percent slopes","drclssd":"Somewhat poorly drained","drclssw":"Somewhat poorly drained"},"geometry":{"type":"Polygon","coordinates":[[[-16.69590816,39.1213788],[-16.69592826,39.12221683],[-16.69593378,39.12244688],[-16.69614958,39.12254352],[-16.69621727,39.12259225],[-16.69655586,39.12302023],[-16.69672963,39.12329444],[-16.6968993,39.12331874],[-16.6970971,39.12328475],[-16.69723941,39.12295307],[-16.69728617,39.1226632],[-16.69728279,39.12252251],[-16.69725585,39.12240638],[-16.69711753,39.12214052],[-16.69695952,39.12196568],[-16.69668251,39.12172834],[-16.69643388,39.12158127],[-16.69590816,39.1213788]]]}},
{"type":"Feature","properties":{"musym":"912A","mukey":173466.0,"clay":28.124213587100183,"sand":61.498070314565162,"silt":10.377716098334655,"wtr_str":29.153402061855672,"muname":"Hoyleton-Darmstadt silt loams, 0 to 2 percent slopes","drclssd":"Somewhat poorly drained","drclssw":"Somewhat poorly drained"},"geometry":{"type":"Polygon","coordinates":[[[-16.700827627,39.121589102],[-16.700822133,39.121360688],[-16.70081317,39.12135838],[-16.7006024,39.12133525],[-16.70053337,39.1213115],[-16.70043864,39.1212406],[-16.70037391,39.12112762],[-16.70037275,39.12103449],[-16.70041045,39.12092754],[-16.70069628,39.12046112],[-16.70079406,39.12023421],[-16.700794239,39.120200922],[-16.700789544,39.120005687],[-16.70075728,39.11989021],[-16.70072236,39.11982999],[-16.70061358,39.1197708],[-16.70044901,39.11975396],[-16.70008164,39.11989074],[-16.69990096,39.11992933],[-16.69974552,39.11992645],[-16.69962474,39.11989339],[-16.69949958,39.11982249],[-16.69943351,39.11974612],[-16.69939224,39.11963273],[-16.69872887,39.11961608],[-16.69858606,39.119639],[-16.69823194,39.11978371],[-16.69806369,39.1199313],[-16.69803082,39.12003675],[-16.69802929,39.12011004],[-16.6980591,39.1202326],[-16.69814262,39.12039143],[-16.69823537,39.12049354],[-16.69838731,39.12056601],[-16.698816,39.12069235],[-16.69891493,39.1207447],[-16.69899462,39.12082546],[-16.69903607,39.1209138],[-16.69904886,39.12099599],[-16.69896243,39.12140075],[-16.69899108,39.12151161],[-16.69907639,39.12167591],[-16.69916906,39.12175563],[-16.69955209,39.1219285],[-16.69986476,39.12197464],[-16.70006031,39.12196287],[-16.70036689,39.121895],[-16.70047577,39.12184861],[-16.70062441,39.1217446],[-16.70070983,39.12165208],[-16.700827627,39.121589102]]]}},
{"type":"Feature","properties":{"musym":"218A","mukey":173446.0,"clay":29.989991728701405,"sand":56.617617866004963,"silt":13.39239040529363,"wtr_str":30.842580645161288,"muname":"Newberry silt loam, 0 to 2 percent slopes","drclssd":"Poorly drained","drclssw":"Poorly drained"},"geometry":{"type":"Polygon","coordinates":[[[-16.6970971,39.12328475],[-16.6968993,39.12331874],[-16.69672963,39.12329444],[-16.69670078,39.12346456],[-16.69666128,39.12356604],[-16.69642038,39.1239116],[-16.6961828,39.12415444],[-16.69597845,39.12430954],[-16.696001214,39.125258653],[-16.696042054,39.12696117],[-16.69650102,39.12695448],[-16.69662272,39.12676111],[-16.69686656,39.12663049],[-16.69692342,39.12656583],[-16.69695827,39.12644081],[-16.6968933,39.12607457],[-16.69693434,39.12578347],[-16.69699765,39.12566639],[-16.69717855,39.12547479],[-16.69731225,39.12528668],[-16.69737737,39.12511691],[-16.69739036,39.12497629],[-16.69738509,39.12487754],[-16.69730345,39.1245837],[-16.69702233,39.12420116],[-16.69697211,39.12408366],[-16.69700463,39.12391197],[-16.69720022,39.12362102],[-16.69724088,39.12350797],[-16.69723811,39.12341922],[-16.69721009,39.12334867],[-16.69716801,39.12331308],[-16.6970971,39.12328475]]]}}
]
}
