{
"type": "FeatureCollection",
"name": "headlands",
"xy_coordinate_resolution": 1e-09,
"features": [
{"type":"Feature","properties":{"rate":180.0,"strip_id":null,"plot_id":null,"type":"headland"},"geometry":{"type":"Polygon","coordinates":[[[-16.7007623,39.1267629],[-16.700779,39.1195693],[-16.6988532,39.119649],[-16.6986749,39.1196502],[-16.6983063,39.1196249],[-16.6960608,39.1196927],[-16.6960421,39.1269612],[-16.7007623,39.1267629]],[[-16.700577412,39.119909401],[-16.700577417,39.119909403],[-16.700577422,39.119909405],[-16.700577428,39.119909407],[-16.700577434,39.119909409],[-16.700577438,39.119909412],[-16.700577443,39.119909414],[-16.700577448,39.119909417],[-16.700577453,39.119909421],[-16.700577457,39.119909423],[-16.700577462,39.119909427],[-16.700577466,39.11990943],[-16.700577469,39.119909434],[-16.700577473,39.119909438],[-16.700577476,39.119909442],[-16.700577479,39.119909446],[-16.700577481,39.119909451],[-16.700577483,39.119909454],[-16.700577486,39.119909459],[-16.700577487,39.119909463],[-16.700577488,39.119909469],[-16.70057749,39.119909473],[-16.700577491,39.119909478],[-16.700577491,39.119909482],[-16.700577491,39.119909487],[-16.700578302,39.120635417],[-16.700579112,39.121361348],[-16.700579112,39.121361353],[-16.700579112,39.121361353],[-16.700579924,39.122087279],[-16.700580735,39.122813208],[-16.700580735,39.122813214],[-16.700580735,39.122813214],[-16.700581547,39.123539138],[-16.700582358,39.124265069],[-16.700582358,39.124265073],[-16.700582358,39.124265074],[-16.700583171,39.124990999],[-16.700583983,39.125716928],[-16.700583983,39.125716933],[-16.700583983,39.125716934],[-16.700584796,39.126442858],[-16.700584795,39.126442863],[-16.700584795,39.126442867],[-16.700584794,39.126442873],[-16.700584793,39.126442877],[-16.700584792,39.126442882],[-16.70058479,39.126442886],[-16.700584788,39.126442891],[-16.700584785,39.126442895],[-16.700584783,39.126442899],[-16.70058478,39.126442903],[-16.700584776,39.126442907],[-16.700584773,39.126442911],[-16.70058477,39.126442915],[-16.700584766,39.126442918],[-16.700584762,39.126442922],[-16.700584757,39.126442925],[-16.700584753,39.126442928],[-16.700584748,39.126442931],[-16.700584743,39.126442934],[-16.700584738,39.126442936],[-16.700584732,39.126442938],[-16.700584727,39.12644294],[-16.700584722,39.126442942],[-16.700584716,39.126442944],[-16.70058471,39.126442945],[-16.700584704,39.126442946],[-16.700584697,39.126442947],[-16.700584692,39.126442948],[-16.700584686,39.126442948],[-16.70058468,39.126442948],[-16.700479036,39.12644302],[-16.700479041,39.126447303],[-16.700479041,39.126447308],[-16.700479041,39.126447313],[-16.70047904,39.126447317],[-16.700479039,39.126447322],[-16.700479038,39.126447326],[-16.700479035,39.126447331],[-16.700479033,39.126447335],[-16.700479031,39.12644734],[-16.700479029,39.126447344],[-16.700479025,39.126447348],[-16.700479022,39.126447352],[-16.700479019,39.126447356],[-16.700479015,39.12644736],[-16.700479012,39.126447363],[-16.700479007,39.126447366],[-16.700479003,39.12644737],[-16.700478998,39.126447373],[-16.700478994,39.126447375],[-16.700478988,39.126447378],[-16.700478983,39.126447381],[-16.700478978,39.126447383],[-16.700478973,39.126447386],[-16.700478967,39.126447387],[-16.700478962,39.126447388],[-16.700478956,39.12644739],[-16.70047895,39.126447391],[-16.700478943,39.126447392],[-16.700478937,39.126447392],[-16.700478932,39.126447393],[-16.700478926,39.126447393],[-16.700373281,39.126447464],[-16.700373286,39.126451748],[-16.700373286,39.126451752],[-16.700373286,39.126451757],[-16.700373285,39.126451761],[-16.700373284,39.126451766],[-16.700373283,39.126451771],[-16.700373281,39.126451775],[-16.700373279,39.12645178],[-16.700373277,39.126451784],[-16.700373274,39.126451789],[-16.700373271,39.126451792],[-16.700373268,39.126451797],[-16.700373264,39.126451801],[-16.700373261,39.126451804],[-16.700373258,39.126451808],[-16.700373253,39.126451812],[-16.700373248,39.126451814],[-16.700373244,39.126451818],[-16.700373239,39.126451821],[-16.700373234,39.126451824],[-16.700373229,39.126451825],[-16.700373223,39.126451828],[-16.700373218,39.12645183],[-16.700373213,39.126451832],[-16.700373207,39.126451833],[-16.700373202,39.126451835],[-16.700373195,39.126451836],[-16.700373189,39.126451837],[-16.700373183,39.126451837],[-16.700373177,39.126451838],[-16.700373172,39.126451838],[-16.700267527,39.12645191],[-16.700267532,39.126456192],[-16.700267532,39.126456197],[-16.700267532,39.126456201],[-16.700267531,39.126456206],[-16.70026753,39.126456211],[-16.700267528,39.126456216],[-16.700267527,39.12645622],[-16.700267525,39.126456225],[-16.700267522,39.126456228],[-16.70026752,39.126456233],[-16.700267517,39.126456238],[-16.700267513,39.126456241],[-16.70026751,39.126456245],[-16.700267507,39.126456249],[-16.700267502,39.126456252],[-16.700267499,39.126456256],[-16.700267494,39.12645626],[-16.70026749,39.126456262],[-16.700267485,39.126456265],[-16.700267479,39.126456268],[-16.700267475,39.126456271],[-16.700267469,39.126456273],[-16.700267463,39.126456274],[-16.700267458,39.126456276],[-16.700267452,39.126456278],[-16.700267446,39.126456279],[-16.70026744,39.12645628],[-16.700267435,39.126456281],[-16.700267429,39.126456282],[-16.700267423,39.126456282],[-16.700267417,39.126456282],[-16.700161773,39.126456354],[-16.700161777,39.126460637],[-16.700161778,39.126460641],[-16.700161777,39.126460646],[-16.700161777,39.126460651],[-16.700161776,39.126460656],[-16.700161773,39.12646066],[-16.700161772,39.126460665],[-16.70016177,39.126460669],[-16.700161768,39.126460674],[-16.700161765,39.126460677],[-16.700161762,39.126460682],[-16.700161759,39.126460685],[-16.700161756,39.12646069],[-16.700161752,39.126460694],[-16.700161748,39.126460697],[-16.700161744,39.1264607],[-16.70016174,39.126460704],[-16.700161735,39.126460707],[-16.700161731,39.126460709],[-16.700161725,39.126460712],[-16.70016172,39.126460715],[-16.700161715,39.126460717],[-16.700161709,39.126460719],[-16.700161703,39.126460721],[-16.700161697,39.126460722],[-16.700161692,39.126460723],[-16.700161686,39.126460725],[-16.70016168,39.126460725],[-16.700161674,39.126460726],[-16.700161669,39.126460726],[-16.700161662,39.126460727],[-16.700056018,39.126460798],[-16.700056023,39.126465081],[-16.700056023,39.126465086],[-16.700056022,39.126465091],[-16.700056022,39.126465095],[-16.70005602,39.1264651],[-16.700056019,39.126465104],[-16.700056018,39.126465109],[-16.700056016,39.126465113],[-16.700056014,39.126465118],[-16.70005601,39.126465122],[-16.700056008,39.126465126],[-16.700056005,39.126465131],[-16.700056001,39.126465134],[-16.700055998,39.126465138],[-16.700055993,39.126465142],[-16.70005599,39.126465145],[-16.700055985,39.126465148],[-16.700055981,39.126465151],[-16.700055975,39.126465154],[-16.700055971,39.126465156],[-16.700055966,39.126465159],[-16.70005596,39.126465162],[-16.700055955,39.126465164],[-16.700055949,39.126465166],[-16.700055943,39.126465167],[-16.700055937,39.126465168],[-16.700055932,39.126465169],[-16.700055926,39.12646517],[-16.70005592,39.126465171],[-16.700055914,39.126465171],[-16.700055907,39.126465172],[-16.699950264,39.126465243],[-16.699950269,39.126469526],[-16.699950269,39.12646953],[-16.699950268,39.126469535],[-16.699950267,39.126469539],[-16.699950266,39.126469544],[-16.699950265,39.126469549],[-16.699950262,39.126469554],[-16.699950261,39.126469557],[-16.699950259,39.126469562],[-16.699950256,39.126469566],[-16.699950254,39.12646957],[-16.69995025,39.126469575],[-16.699950247,39.126469578],[-16.699950243,39.126469582],[-16.699950239,39.126469586],[-16.699950234,39.126469589],[-16.699950231,39.126469592],[-16.699950225,39.126469596],[-16.699950221,39.126469598],[-16.699950216,39.126469601],[-16.69995021,39.126469603],[-16.699950206,39.126469606],[-16.6999502,39.126469608],[-16.699950194,39.12646961],[-16.699950189,39.126469612],[-16.699950183,39.126469613],[-16.699950177,39.126469614],[-16.699950171,39.126469614],[-16.699950166,39.126469615],[-16.699950159,39.126469616],[-16.699950153,39.126469616],[-16.69984451,39.126469687],[-16.699844514,39.12647397],[-16.699844514,39.126473974],[-16.699844513,39.126473979],[-16.699844512,39.126473984],[-16.699844511,39.126473989],[-16.69984451,39.126473993],[-16.699844508,39.126473998],[-16.699844507,39.126474002],[-16.699844504,39.126474007],[-16.699844501,39.12647401],[-16.699844499,39.126474015],[-16.699844496,39.126474019],[-16.699844492,39.126474022],[-16.699844488,39.126474027],[-16.699844485,39.12647403],[-16.69984448,39.126474033],[-16.699844475,39.126474037],[-16.699844471,39.12647404],[-16.699844466,39.126474042],[-16.699844462,39.126474045],[-16.699844456,39.126474048],[-16.699844451,39.12647405],[-16.699844446,39.126474052],[-16.69984444,39.126474054],[-16.699844434,39.126474055],[-16.699844429,39.126474056],[-16.699844423,39.126474057],[-16.699844417,39.126474058],[-16.699844411,39.126474059],[-16.699844404,39.12647406],[-16.699844399,39.12647406],[-16.699738755,39.126474131],[-16.69973876,39.126478413],[-16.699738759,39.126478419],[-16.699738759,39.126478423],[-16.699738758,39.126478428],[-16.699738757,39.126478432],[-16.699738756,39.126478437],[-16.699738754,39.126478442],[-16.699738751,39.126478446],[-16.699738749,39.126478451],[-16.699738747,39.126478454],[-16.699738744,39.126478459],[-16.699738741,39.126478462],[-16.699738738,39.126478467],[-16.699738734,39.126478471],[-16.69973873,39.126478474],[-16.699738726,39.126478477],[-16.699738721,39.126478481],[-16.699738716,39.126478484],[-16.699738712,39.126478486],[-16.699738707,39.126478489],[-16.699738702,39.126478492],[-16.699738697,39.126478494],[-16.699738691,39.126478496],[-16.699738686,39.126478497],[-16.69973868,39.126478499],[-16.699738674,39.126478501],[-16.699738668,39.126478502],[-16.699738663,39.126478503],[-16.699738656,39.126478503],[-16.69973865,39.126478503],[-16.699738644,39.126478503],[-16.699633001,39.126478575],[-16.699633005,39.126482858],[-16.699633004,39.126482863],[-16.699633005,39.126482867],[-16.699633003,39.126482872],[-16.699633002,39.126482876],[-16.699633001,39.126482881],[-16.699632999,39.126482885],[-16.699632997,39.12648289],[-16.699632995,39.126482894],[-16.699632993,39.126482899],[-16.699632989,39.126482903],[-16.699632987,39.126482907],[-16.699632982,39.126482911],[-16.699632979,39.126482914],[-16.699632976,39.126482918],[-16.699632971,39.126482922],[-16.699632967,39.126482925],[-16.699632962,39.126482928],[-16.699632957,39.126482931],[-16.699632953,39.126482934],[-16.699632947,39.126482936],[-16.699632941,39.126482938],[-16.699632937,39.12648294],[-16.699632931,39.126482942],[-16.699632925,39.126482943],[-16.69963292,39.126482945],[-16.699632914,39.126482946],[-16.699632908,39.126482947],[-16.699632901,39.126482947],[-16.699632895,39.126482948],[-16.69963289,39.126482948],[-16.699527246,39.126483019],[-16.699527251,39.126487302],[-16.69952725,39.126487306],[-16.69952725,39.126487311],[-16.699527249,39.126487315],[-16.699527248,39.126487321],[-16.699527247,39.126487325],[-16.699527245,39.12648733],[-16.699527243,39.126487334],[-16.69952724,39.126487338],[-16.699527238,39.126487343],[-16.699527235,39.126487347],[-16.699527231,39.126487351],[-16.699527228,39.126487354],[-16.699527225,39.126487358],[-16.699527221,39.126487362],[-16.699527217,39.126487365],[-16.699527212,39.126487369],[-16.699527208,39.126487372],[-16.699527203,39.126487375],[-16.699527197,39.126487377],[-16.699527193,39.12648738],[-16.699527187,39.126487382],[-16.699527182,39.126487384],[-16.699527177,39.126487386],[-16.699527171,39.126487388],[-16.699527165,39.126487389],[-16.699527159,39.12648739],[-16.699527153,39.126487391],[-16.699527147,39.126487392],[-16.699527141,39.126487392],[-16.699527135,39.126487392],[-16.699421491,39.126487463],[-16.699421495,39.126491745],[-16.699421495,39.12649175],[-16.699421496,39.126491755],[-16.699421495,39.12649176],[-16.699421494,39.126491764],[-16.699421492,39.126491769],[-16.69942149,39.126491773],[-16.699421488,39.126491778],[-16.699421486,39.126491783],[-16.699421484,39.126491786],[-16.69942148,39.126491791],[-16.699421477,39.126491794],[-16.699421474,39.126491799],[-16.69942147,39.126491803],[-16.699421467,39.126491806],[-16.699421462,39.126491809],[-16.699421458,39.126491813],[-16.699421453,39.126491815],[-16.699421449,39.126491818],[-16.699421443,39.126491821],[-16.699421438,39.126491824],[-16.699421433,39.126491826],[-16.699421427,39.126491828],[-16.699421422,39.126491829],[-16.699421416,39.126491831],[-16.699421411,39.126491832],[-16.699421404,39.126491834],[-16.699421398,39.126491834],[-16.699421392,39.126491835],[-16.699421386,39.126491835],[-16.699421381,39.126491835],[-16.699315736,39.126491906],[-16.699315741,39.126496189],[-16.699315741,39.126496194],[-16.699315741,39.126496199],[-16.69931574,39.126496203],[-16.699315739,39.126496208],[-16.699315737,39.126496212],[-16.699315736,39.126496217],[-16.699315734,39.126496221],[-16.699315731,39.126496226],[-16.699315729,39.126496231],[-16.699315726,39.126496234],[-16.699315722,39.126496239],[-16.699315719,39.126496242],[-16.699315716,39.126496246],[-16.699315711,39.12649625],[-16.699315708,39.126496253],[-16.699315703,39.126496256],[-16.699315699,39.126496259],[-16.699315694,39.126496263],[-16.699315688,39.126496264],[-16.699315684,39.126496267],[-16.699315678,39.12649627],[-16.699315672,39.126496272],[-16.699315667,39.126496274],[-16.699315662,39.126496275],[-16.699315655,39.126496277],[-16.699315649,39.126496278],[-16.699315644,39.126496279],[-16.699315638,39.126496279],[-16.699315632,39.12649628],[-16.699315626,39.12649628],[-16.699209982,39.12649635],[-16.699209986,39.126500633],[-16.699209987,39.126500638],[-16.699209985,39.126500642],[-16.699209986,39.126500647],[-16.699209985,39.126500651],[-16.699209982,39.126500657],[-16.699209981,39.126500661],[-16.699209979,39.126500665],[-16.699209977,39.126500669],[-16.699209973,39.126500674],[-16.699209971,39.126500678],[-16.699209968,39.126500682],[-16.699209965,39.126500686],[-16.699209961,39.126500689],[-16.699209957,39.126500693],[-16.699209953,39.126500697],[-16.699209949,39.1265007],[-16.699209944,39.126500703],[-16.69920994,39.126500706],[-16.699209934,39.126500709],[-16.699209929,39.126500711],[-16.699209924,39.126500713],[-16.699209918,39.126500715],[-16.699209912,39.126500717],[-16.699209906,39.126500719],[-16.699209901,39.12650072],[-16.699209895,39.126500721],[-16.699209889,39.126500722],[-16.699209883,39.126500723],[-16.699209878,39.126500723],[-16.699209871,39.126500723],[-16.699104227,39.126500794],[-16.699104232,39.126505077],[-16.699104232,39.126505081],[-16.699104231,39.126505086],[-16.699104231,39.126505091],[-16.69910423,39.126505095],[-16.699104228,39.1265051],[-16.699104227,39.126505105],[-16.699104225,39.126505109],[-16.699104222,39.126505113],[-16.699104219,39.126505117],[-16.699104217,39.126505122],[-16.699104213,39.126505125],[-16.69910421,39.126505129],[-16.699104207,39.126505134],[-16.699104202,39.126505136],[-16.699104199,39.12650514],[-16.699104194,39.126505144],[-16.69910419,39.126505147],[-16.699104184,39.126505149],[-16.699104179,39.126505152],[-16.699104175,39.126505155],[-16.699104169,39.126505157],[-16.699104163,39.126505159],[-16.699104158,39.12650516],[-16.699104152,39.126505162],[-16.699104146,39.126505163],[-16.69910414,39.126505164],[-16.699104135,39.126505165],[-16.699104129,39.126505166],[-16.699104123,39.126505166],[-16.699104116,39.126505167],[-16.698998473,39.126505237],[-16.698998477,39.12650952],[-16.698998477,39.126509524],[-16.698998476,39.12650953],[-16.698998475,39.126509534],[-16.698998474,39.126509539],[-16.698998473,39.126509543],[-16.698998472,39.126509548],[-16.69899847,39.126509552],[-16.698998468,39.126509557],[-16.698998464,39.12650956],[-16.698998462,39.126509565],[-16.698998459,39.126509569],[-16.698998455,39.126509573],[-16.698998452,39.126509577],[-16.698998448,39.126509581],[-16.698998443,39.126509583],[-16.69899844,39.126509587],[-16.698998435,39.12650959],[-16.698998429,39.126509592],[-16.698998425,39.126509595],[-16.698998419,39.126509598],[-16.698998414,39.1265096],[-16.698998409,39.126509603],[-16.698998403,39.126509604],[-16.698998397,39.126509606],[-16.698998392,39.126509607],[-16.698998386,39.126509608],[-16.69899838,39.126509609],[-16.698998374,39.12650961],[-16.698998367,39.12650961],[-16.698998361,39.12650961],[-16.698892718,39.12650968],[-16.698892723,39.126513964],[-16.698892723,39.126513968],[-16.698892722,39.126513973],[-16.698892721,39.126513977],[-16.69889272,39.126513982],[-16.698892719,39.126513986],[-16.698892716,39.126513991],[-16.698892715,39.126513995],[-16.698892712,39.126514],[-16.69889271,39.126514004],[-16.698892708,39.126514008],[-16.698892704,39.126514013],[-16.698892701,39.126514016],[-16.698892696,39.12651402],[-16.698892693,39.126514024],[-16.698892688,39.126514027],[-16.698892684,39.12651403],[-16.698892679,39.126514034],[-16.698892675,39.126514036],[-16.69889267,39.126514039],[-16.698892664,39.126514041],[-16.69889266,39.126514044],[-16.698892654,39.126514046],[-16.698892648,39.126514048],[-16.698892643,39.126514049],[-16.698892637,39.126514051],[-16.698892631,39.126514052],[-16.698892625,39.126514053],[-16.69889262,39.126514053],[-16.698892613,39.126514054],[-16.698892607,39.126514054],[-16.698786964,39.126514124],[-16.698786968,39.126518407],[-16.698786968,39.126518411],[-16.698786967,39.126518416],[-16.698786966,39.12651842],[-16.698786965,39.126518426],[-16.698786964,39.12651843],[-16.698786962,39.126518435],[-16.69878696,39.126518439],[-16.698786957,39.126518443],[-16.698786955,39.126518447],[-16.698786952,39.126518452],[-16.69878695,39.126518456],[-16.698786946,39.126518459],[-16.698786942,39.126518463],[-16.698786938,39.126518467],[-16.698786934,39.12651847],[-16.698786929,39.126518474],[-16.698786925,39.126518477],[-16.69878692,39.126518479],[-16.698786916,39.126518482],[-16.69878691,39.126518485],[-16.698786905,39.126518487],[-16.6987869,39.126518489],[-16.698786894,39.126518491],[-16.698786888,39.126518493],[-16.698786882,39.126518494],[-16.698786877,39.126518495],[-16.698786871,39.126518496],[-16.698786864,39.126518497],[-16.698786858,39.126518497],[-16.698786852,39.126518497],[-16.698681209,39.126518567],[-16.698681214,39.12652285],[-16.698681213,39.126522854],[-16.698681213,39.12652286],[-16.698681212,39.126522864],[-16.698681211,39.126522869],[-16.69868121,39.126522873],[-16.698681207,39.126522878],[-16.698681205,39.126522882],[-16.698681203,39.126522887],[-16.698681201,39.12652289],[-16.698681197,39.126522895],[-16.698681195,39.126522899],[-16.698681191,39.126522903],[-16.698681187,39.126522907],[-16.698681184,39.12652291],[-16.698681179,39.126522913],[-16.698681175,39.126522917],[-16.69868117,39.12652292],[-16.698681166,39.126522922],[-16.698681161,39.126522925],[-16.698681155,39.126522928],[-16.69868115,39.12652293],[-16.698681145,39.126522932],[-16.698681139,39.126522934],[-16.698681134,39.126522935],[-16.698681128,39.126522936],[-16.698681122,39.126522937],[-16.698681116,39.126522938],[-16.698681109,39.126522939],[-16.698681104,39.12652294],[-16.698681098,39.12652294],[-16.698575454,39.12652301],[-16.698575459,39.126527292],[-16.698575458,39.126527298],[-16.698575458,39.126527302],[-16.698575457,39.126527307],[-16.698575456,39.126527311],[-16.698575455,39.126527316],[-16.698575453,39.12652732],[-16.698575451,39.126527325],[-16.698575448,39.12652733],[-16.698575446,39.126527334],[-16.698575443,39.126527338],[-16.698575439,39.126527342],[-16.698575436,39.126527346],[-16.698575433,39.12652735],[-16.698575429,39.126527353],[-16.698575425,39.126527357],[-16.69857542,39.12652736],[-16.698575416,39.126527362],[-16.698575411,39.126527366],[-16.698575405,39.126527368],[-16.698575401,39.126527371],[-16.698575395,39.126527374],[-16.69857539,39.126527375],[-16.698575385,39.126527377],[-16.698575379,39.126527378],[-16.698575373,39.12652738],[-16.698575367,39.126527381],[-16.69857536,39.126527382],[-16.698575355,39.126527382],[-16.698575349,39.126527383],[-16.698575343,39.126527383],[-16.698469699,39.126527452],[-16.698469703,39.126531736],[-16.698469703,39.126531741],[-16.698469703,39.126531745],[-16.698469702,39.12653175],[-16.698469701,39.126531754],[-16.6984697,39.126531759],[-16.698469698,39.126531763],[-16.698469696,39.126531768],[-16.698469694,39.126531772],[-16.698469691,39.126531777],[-16.698469688,39.12653178],[-16.698469685,39.126531785],[-16.698469681,39.126531789],[-16.698469678,39.126531792],[-16.698469675,39.126531796],[-16.69846967,39.1265318],[-16.698469665,39.126531802],[-16.698469661,39.126531806],[-16.698469656,39.126531809],[-16.698469651,39.126531812],[-16.698469646,39.126531813],[-16.69846964,39.126531816],[-16.698469635,39.126531818],[-16.69846963,39.12653182],[-16.698469624,39.126531822],[-16.698469619,39.126531823],[-16.698469612,39.126531824],[-16.698469606,39.126531825],[-16.6984696,39.126531826],[-16.698469594,39.126531826],[-16.698469589,39.126531826],[-16.698363944,39.126531896],[-16.698363949,39.126536179],[-16.698363949,39.126536183],[-16.698363949,39.126536188],[-16.698363948,39.126536193],[-16.698363947,39.126536198],[-16.698363945,39.126536202],[-16.698363943,39.126536207],[-16.698363941,39.126536211],[-16.698363939,39.126536215],[-16.698363937,39.126536219],[-16.698363933,39.126536224],[-16.69836393,39.126536228],[-16.698363927,39.126536231],[-16.698363923,39.126536235],[-16.698363919,39.126536239],[-16.698363915,39.126536242],[-16.698363911,39.126536246],[-16.698363906,39.126536249],[-16.698363902,39.126536251],[-16.698363896,39.126536254],[-16.698363891,39.126536257],[-16.698363886,39.126536259],[-16.69836388,39.126536261],[-16.698363874,39.126536263],[-16.69836387,39.126536265],[-16.698363863,39.126536266],[-16.698363857,39.126536267],[-16.698363851,39.126536268],[-16.698363845,39.126536269],[-16.69836384,39.126536269],[-16.698363834,39.126536269],[-16.698258189,39.126536338],[-16.698258194,39.126540621],[-16.698258194,39.126540626],[-16.698258193,39.126540631],[-16.698258193,39.126540636],[-16.698258192,39.12654064],[-16.69825819,39.126540645],[-16.698258189,39.126540649],[-16.698258187,39.126540654],[-16.698258184,39.126540658],[-16.698258181,39.126540662],[-16.698258179,39.126540666],[-16.698258175,39.12654067],[-16.698258172,39.126540675],[-16.698258169,39.126540678],[-16.698258164,39.126540682],[-16.698258161,39.126540685],[-16.698258156,39.126540688],[-16.698258152,39.126540691],[-16.698258147,39.126540694],[-16.698258141,39.126540697],[-16.698258137,39.1265407],[-16.698258131,39.126540701],[-16.698258125,39.126540704],[-16.69825812,39.126540705],[-16.698258114,39.126540707],[-16.698258108,39.126540708],[-16.698258102,39.12654071],[-16.698258097,39.12654071],[-16.698258091,39.126540711],[-16.698258085,39.126540711],[-16.698258078,39.126540711],[-16.698152435,39.126540781],[-16.698152439,39.126545065],[-16.698152439,39.126545069],[-16.698152438,39.126545074],[-16.698152438,39.126545078],[-16.698152437,39.126545083],[-16.698152435,39.126545087],[-16.698152434,39.126545092],[-16.698152432,39.126545096],[-16.69815243,39.126545101],[-16.698152426,39.126545105],[-16.698152424,39.126545109],[-16.698152421,39.126545113],[-16.698152417,39.126545117],[-16.698152414,39.126545121],[-16.698152409,39.126545124],[-16.698152406,39.126545128],[-16.698152402,39.126545131],[-16.698152397,39.126545135],[-16.698152391,39.126545137],[-16.698152387,39.12654514],[-16.698152382,39.126545142],[-16.698152376,39.126545145],[-16.698152371,39.126545147],[-16.698152365,39.126545149],[-16.698152359,39.12654515],[-16.698152353,39.126545151],[-16.698152348,39.126545152],[-16.698152342,39.126545153],[-16.698152336,39.126545153],[-16.69815233,39.126545154],[-16.698152323,39.126545155],[-16.69804668,39.126545224],[-16.698046685,39.126549507],[-16.698046685,39.126549511],[-16.698046684,39.126549516],[-16.698046683,39.12654952],[-16.698046682,39.126549526],[-16.69804668,39.12654953],[-16.698046679,39.126549535],[-16.698046677,39.126549539],[-16.698046675,39.126549543],[-16.698046672,39.126549548],[-16.698046669,39.126549552],[-16.698046666,39.126549556],[-16.698046663,39.126549559],[-16.698046659,39.126549563],[-16.698046655,39.126549567],[-16.69804665,39.12654957],[-16.698046647,39.126549574],[-16.698046642,39.126549577],[-16.698046637,39.12654958],[-16.698046632,39.126549582],[-16.698046626,39.126549585],[-16.698046622,39.126549587],[-16.698046616,39.126549589],[-16.69804661,39.126549591],[-16.698046604,39.126549593],[-16.698046599,39.126549594],[-16.698046593,39.126549595],[-16.698046587,39.126549596],[-16.698046581,39.126549597],[-16.698046575,39.126549597],[-16.698046569,39.126549597],[-16.697940925,39.126549666],[-16.69794093,39.126553949],[-16.69794093,39.126553954],[-16.697940929,39.126553959],[-16.697940928,39.126553964],[-16.697940927,39.126553968],[-16.697940926,39.126553973],[-16.697940924,39.126553977],[-16.697940923,39.126553982],[-16.697940919,39.126553986],[-16.697940917,39.12655399],[-16.697940915,39.126553994],[-16.697940911,39.126553998],[-16.697940908,39.126554003],[-16.697940903,39.126554006],[-16.6979409,39.12655401],[-16.697940896,39.126554013],[-16.697940891,39.126554016],[-16.697940886,39.126554019],[-16.697940882,39.126554022],[-16.697940877,39.126554025],[-16.697940872,39.126554027],[-16.697940867,39.126554029],[-16.697940861,39.126554031],[-16.697940856,39.126554033],[-16.69794085,39.126554035],[-16.697940844,39.126554036],[-16.697940838,39.126554037],[-16.697940832,39.126554038],[-16.697940827,39.126554039],[-16.69794082,39.126554039],[-16.697940814,39.126554039],[-16.69783517,39.126554109],[-16.697835175,39.126558391],[-16.697835175,39.126558397],[-16.697835174,39.126558401],[-16.697835173,39.126558406],[-16.697835172,39.12655841],[-16.697835171,39.126558415],[-16.697835169,39.126558419],[-16.697835167,39.126558424],[-16.697835164,39.126558428],[-16.697835162,39.126558433],[-16.697835159,39.126558437],[-16.697835157,39.126558441],[-16.697835153,39.126558445],[-16.697835149,39.126558448],[-16.697835145,39.126558452],[-16.697835141,39.126558456],[-16.697835136,39.126558459],[-16.697835132,39.126558461],[-16.697835127,39.126558465],[-16.697835123,39.126558467],[-16.697835117,39.12655847],[-16.697835112,39.126558471],[-16.697835107,39.126558474],[-16.697835101,39.126558476],[-16.697835095,39.126558477],[-16.697835089,39.126558479],[-16.697835084,39.12655848],[-16.697835078,39.126558481],[-16.697835071,39.126558481],[-16.697835065,39.126558482],[-16.697835059,39.126558482],[-16.697729416,39.126558551],[-16.69772942,39.126562834],[-16.697729419,39.126562839],[-16.697729419,39.126562843],[-16.697729418,39.126562848],[-16.697729417,39.126562852],[-16.697729416,39.126562857],[-16.697729414,39.126562861],[-16.697729412,39.126562866],[-16.69772941,39.12656287],[-16.697729407,39.126562875],[-16.697729404,39.126562879],[-16.697729402,39.126562883],[-16.697729397,39.126562887],[-16.697729394,39.12656289],[-16.697729391,39.126562894],[-16.697729386,39.126562898],[-16.697729381,39.126562901],[-16.697729377,39.126562904],[-16.697729372,39.126562907],[-16.697729368,39.12656291],[-16.697729362,39.126562912],[-16.697729356,39.126562914],[-16.697729352,39.126562916],[-16.697729346,39.126562918],[-16.69772934,39.12656292],[-16.697729335,39.126562921],[-16.697729329,39.126562922],[-16.697729323,39.126562923],[-16.697729316,39.126562923],[-16.69772931,39.126562924],[-16.697729305,39.126562924],[-16.697623661,39.126562993],[-16.697623666,39.126567276],[-16.697623665,39.126567281],[-16.697623665,39.126567285],[-16.697623664,39.126567291],[-16.697623663,39.126567295],[-16.697623662,39.1265673],[-16.697623659,39.126567304],[-16.697623657,39.126567309],[-16.697623655,39.126567312],[-16.697623653,39.126567317],[-16.697623649,39.126567321],[-16.697623646,39.126567325],[-16.697623643,39.126567329],[-16.697623639,39.126567332],[-16.697623636,39.126567336],[-16.697623631,39.12656734],[-16.697623627,39.126567343],[-16.697623622,39.126567346],[-16.697623618,39.126567349],[-16.697623613,39.126567352],[-16.697623607,39.126567355],[-16.697623602,39.126567356],[-16.697623597,39.126567358],[-16.697623591,39.12656736],[-16.697623586,39.126567362],[-16.69762358,39.126567363],[-16.697623574,39.126567364],[-16.697623567,39.126567365],[-16.697623561,39.126567366],[-16.697623556,39.126567366],[-16.69762355,39.126567366],[-16.697517905,39.126567435],[-16.69751791,39.126571718],[-16.69751791,39.126571723],[-16.69751791,39.126571728],[-16.697517909,39.126571732],[-16.697517908,39.126571737],[-16.697517907,39.126571742],[-16.697517905,39.126571746],[-16.697517902,39.126571751],[-16.6975179,39.126571755],[-16.697517898,39.126571759],[-16.697517895,39.126571763],[-16.697517891,39.126571767],[-16.697517888,39.126571772],[-16.697517884,39.126571775],[-16.697517881,39.126571779],[-16.697517876,39.126571782],[-16.697517872,39.126571785],[-16.697517867,39.126571788],[-16.697517863,39.126571791],[-16.697517857,39.126571794],[-16.697517853,39.126571796],[-16.697517847,39.126571798],[-16.697517841,39.126571801],[-16.697517836,39.126571802],[-16.697517831,39.126571804],[-16.697517825,39.126571805],[-16.697517818,39.126571807],[-16.697517812,39.126571807],[-16.697517807,39.126571808],[-16.697517801,39.126571808],[-16.697517795,39.126571808],[-16.69741215,39.126571877],[-16.697412155,39.126576161],[-16.697412155,39.126576165],[-16.697412155,39.12657617],[-16.697412154,39.126576174],[-16.697412153,39.126576179],[-16.697412151,39.126576183],[-16.69741215,39.126576188],[-16.697412148,39.126576192],[-16.697412145,39.126576197],[-16.697412143,39.126576201],[-16.69741214,39.126576205],[-16.697412136,39.12657621],[-16.697412133,39.126576213],[-16.69741213,39.126576217],[-16.697412125,39.126576221],[-16.697412122,39.126576224],[-16.697412117,39.126576227],[-16.697412113,39.126576231],[-16.697412108,39.126576233],[-16.697412102,39.126576236],[-16.697412098,39.126576238],[-16.697412092,39.126576241],[-16.697412086,39.126576243],[-16.697412081,39.126576245],[-16.697412076,39.126576246],[-16.697412069,39.126576248],[-16.697412063,39.126576249],[-16.697412058,39.12657625],[-16.697412052,39.12657625],[-16.697412046,39.126576251],[-16.69741204,39.126576251],[-16.697306395,39.12657632],[-16.6973064,39.126580602],[-16.6973064,39.126580607],[-16.697306399,39.126580611],[-16.697306399,39.126580616],[-16.697306398,39.126580621],[-16.697306396,39.126580626],[-16.697306395,39.12658063],[-16.697306393,39.126580634],[-16.697306391,39.126580639],[-16.697306387,39.126580643],[-16.697306385,39.126580648],[-16.697306382,39.126580651],[-16.697306378,39.126580655],[-16.697306375,39.126580659],[-16.69730637,39.126580662],[-16.697306367,39.126580666],[-16.697306362,39.126580669],[-16.697306358,39.126580672],[-16.697306353,39.126580675],[-16.697306348,39.126580678],[-16.697306343,39.12658068],[-16.697306337,39.126580683],[-16.697306331,39.126580684],[-16.697306326,39.126580686],[-16.69730632,39.126580688],[-16.697306314,39.126580689],[-16.697306308,39.12658069],[-16.697306303,39.126580691],[-16.697306297,39.126580692],[-16.697306291,39.126580692],[-16.697306284,39.126580692],[-16.697200641,39.126580761],[-16.697200645,39.126585044],[-16.697200645,39.126585048],[-16.697200644,39.126585054],[-16.697200644,39.126585058],[-16.697200643,39.126585063],[-16.697200641,39.126585067],[-16.69720064,39.126585072],[-16.697200638,39.126585077],[-16.697200636,39.126585081],[-16.697200632,39.126585085],[-16.69720063,39.126585089],[-16.697200627,39.126585093],[-16.697200623,39.126585097],[-16.69720062,39.126585101],[-16.697200615,39.126585105],[-16.697200612,39.126585108],[-16.697200608,39.126585111],[-16.697200603,39.126585114],[-16.697200597,39.126585117],[-16.697200593,39.12658512],[-16.697200588,39.126585122],[-16.697200582,39.126585124],[-16.697200577,39.126585126],[-16.697200571,39.126585128],[-16.697200565,39.12658513],[-16.697200559,39.126585131],[-16.697200554,39.126585132],[-16.697200548,39.126585133],[-16.697200542,39.126585134],[-16.697200536,39.126585134],[-16.697200529,39.126585134],[-16.697094886,39.126585203],[-16.69709489,39.126589485],[-16.697094891,39.126589491],[-16.697094889,39.126589495],[-16.697094888,39.1265895],[-16.697094887,39.126589504],[-16.697094886,39.126589509],[-16.697094885,39.126589513],[-16.697094883,39.126589518],[-16.697094881,39.126589523],[-16.697094878,39.126589527],[-16.697094875,39.126589531],[-16.697094872,39.126589535],[-16.697094869,39.126589539],[-16.697094865,39.126589543],[-16.697094861,39.126589546],[-16.697094856,39.12658955],[-16.697094853,39.126589553],[-16.697094848,39.126589555],[-16.697094842,39.126589559],[-16.697094838,39.126589561],[-16.697094832,39.126589564],[-16.697094828,39.126589566],[-16.697094822,39.126589568],[-16.697094816,39.12658957],[-16.69709481,39.126589571],[-16.697094805,39.126589573],[-16.697094799,39.126589574],[-16.697094793,39.126589575],[-16.697094787,39.126589575],[-16.69709478,39.126589576],[-16.697094775,39.126589576],[-16.696989131,39.126589644],[-16.696989136,39.126593928],[-16.696989136,39.126593932],[-16.696989135,39.126593937],[-16.696989134,39.126593941],[-16.696989133,39.126593946],[-16.696989131,39.12659395],[-16.696989129,39.126593955],[-16.696989128,39.126593959],[-16.696989126,39.126593964],[-16.696989123,39.126593968],[-16.69698912,39.126593972],[-16.696989117,39.126593977],[-16.696989114,39.12659398],[-16.696989109,39.126593984],[-16.696989106,39.126593988],[-16.696989101,39.126593991],[-16.696989097,39.126593994],[-16.696989092,39.126593998],[-16.696989088,39.126594],[-16.696989083,39.126594003],[-16.696989077,39.126594005],[-16.696989073,39.126594008],[-16.696989067,39.12659401],[-16.696989061,39.126594012],[-16.696989055,39.126594013],[-16.69698905,39.126594015],[-16.696989044,39.126594016],[-16.696989038,39.126594017],[-16.696989032,39.126594017],[-16.696989026,39.126594018],[-16.69698902,39.126594018],[-16.696883376,39.126594086],[-16.696883381,39.126598369],[-16.696883381,39.126598373],[-16.69688338,39.126598378],[-16.696883379,39.126598383],[-16.696883378,39.126598388],[-16.696883377,39.126598392],[-16.696883374,39.126598397],[-16.696883372,39.126598402],[-16.69688337,39.126598405],[-16.696883368,39.12659841],[-16.696883364,39.126598414],[-16.696883362,39.126598418],[-16.696883359,39.126598422],[-16.696883354,39.126598425],[-16.696883351,39.126598429],[-16.696883346,39.126598433],[-16.696883342,39.126598436],[-16.696883337,39.126598439],[-16.696883333,39.126598442],[-16.696883328,39.126598445],[-16.696883322,39.126598447],[-16.696883318,39.126598449],[-16.696883312,39.126598451],[-16.696883306,39.126598453],[-16.696883301,39.126598455],[-16.696883295,39.126598456],[-16.696883289,39.126598457],[-16.696883283,39.126598458],[-16.696883276,39.126598459],[-16.696883271,39.126598459],[-16.696883265,39.126598459],[-16.696777621,39.126598527],[-16.696777626,39.12660281],[-16.696777625,39.126602815],[-16.696777625,39.12660282],[-16.696777624,39.126602825],[-16.696777623,39.126602829],[-16.696777622,39.126602834],[-16.69677762,39.126602838],[-16.696777617,39.126602843],[-16.696777615,39.126602847],[-16.696777613,39.126602851],[-16.69677761,39.126602855],[-16.696777607,39.126602859],[-16.696777604,39.126602864],[-16.696777599,39.126602867],[-16.696777596,39.126602871],[-16.696777591,39.126602874],[-16.696777587,39.126602877],[-16.696777582,39.12660288],[-16.696777578,39.126602883],[-16.696777573,39.126602886],[-16.696777568,39.126602889],[-16.696777562,39.12660289],[-16.696777557,39.126602892],[-16.696777551,39.126602894],[-16.696777546,39.126602896],[-16.69677754,39.126602897],[-16.696777534,39.126602899],[-16.696777528,39.126602899],[-16.696777522,39.1266029],[-16.696777516,39.1266029],[-16.69677751,39.1266029],[-16.696671866,39.126602969],[-16.696671871,39.126607251],[-16.69667187,39.126607257],[-16.69667187,39.126607261],[-16.696671869,39.126607266],[-16.696671868,39.12660727],[-16.696671867,39.126607275],[-16.696671865,39.126607279],[-16.696671862,39.126607284],[-16.69667186,39.126607288],[-16.696671858,39.126607293],[-16.696671855,39.126607297],[-16.696671851,39.126607301],[-16.696671848,39.126607305],[-16.696671844,39.126607308],[-16.696671841,39.126607312],[-16.696671837,39.126607316],[-16.696671832,39.126607319],[-16.696671827,39.126607322],[-16.696671823,39.126607325],[-16.696671818,39.126607328],[-16.696671813,39.12660733],[-16.696671807,39.126607332],[-16.696671802,39.126607334],[-16.696671797,39.126607336],[-16.696671791,39.126607337],[-16.696671785,39.126607339],[-16.696671779,39.12660734],[-16.696671772,39.126607341],[-16.696671767,39.126607341],[-16.696671761,39.126607342],[-16.696671755,39.126607342],[-16.69656611,39.12660741],[-16.696566115,39.126611693],[-16.696566115,39.126611698],[-16.696566115,39.126611702],[-16.696566114,39.126611707],[-16.696566113,39.126611712],[-16.696566112,39.126611717],[-16.69656611,39.126611721],[-16.696566107,39.126611725],[-16.696566105,39.126611729],[-16.696566103,39.126611734],[-16.6965661,39.126611738],[-16.696566096,39.126611742],[-16.696566093,39.126611746],[-16.69656609,39.126611749],[-16.696566086,39.126611753],[-16.696566082,39.126611757],[-16.696566077,39.12661176],[-16.696566073,39.126611763],[-16.696566068,39.126611766],[-16.696566062,39.126611769],[-16.696566058,39.126611771],[-16.696566052,39.126611773],[-16.696566046,39.126611775],[-16.696566042,39.126611777],[-16.696566036,39.126611779],[-16.69656603,39.12661178],[-16.696566023,39.126611781],[-16.696566017,39.126611782],[-16.696566012,39.126611783],[-16.696566006,39.126611783],[-16.696566,39.126611783],[-16.696460355,39.126611851],[-16.69646036,39.126616134],[-16.69646036,39.126616139],[-16.69646036,39.126616143],[-16.696460359,39.126616149],[-16.696460358,39.126616153],[-16.696460356,39.126616158],[-16.696460355,39.126616162],[-16.696460353,39.126616167],[-16.69646035,39.126616171],[-16.696460348,39.126616175],[-16.696460345,39.126616179],[-16.696460341,39.126616183],[-16.696460338,39.126616187],[-16.696460335,39.126616191],[-16.69646033,39.126616194],[-16.696460327,39.126616198],[-16.696460322,39.126616201],[-16.696460318,39.126616204],[-16.696460313,39.126616207],[-16.696460307,39.12661621],[-16.696460303,39.126616212],[-16.696460297,39.126616214],[-16.696460291,39.126616216],[-16.696460287,39.126616218],[-16.696460281,39.12661622],[-16.696460274,39.126616221],[-16.696460268,39.126616222],[-16.696460262,39.126616223],[-16.696460257,39.126616224],[-16.696460251,39.126616224],[-16.696460245,39.126616224],[-16.6963546,39.126616292],[-16.696354605,39.126620575],[-16.696354605,39.12662058],[-16.696354604,39.126620585],[-16.696354604,39.126620589],[-16.696354603,39.126620594],[-16.696354601,39.126620598],[-16.6963546,39.126620603],[-16.696354598,39.126620607],[-16.696354595,39.126620612],[-16.696354593,39.126620617],[-16.69635459,39.12662062],[-16.696354586,39.126620624],[-16.696354583,39.126620628],[-16.69635458,39.126620632],[-16.696354575,39.126620636],[-16.696354572,39.126620639],[-16.696354567,39.126620642],[-16.696354563,39.126620645],[-16.696354558,39.126620648],[-16.696354552,39.12662065],[-16.696354548,39.126620653],[-16.696354542,39.126620655],[-16.696354536,39.126620658],[-16.696354531,39.12662066],[-16.696354525,39.126620661],[-16.696354519,39.126620663],[-16.696354513,39.126620664],[-16.696354508,39.126620665],[-16.696354502,39.126620665],[-16.696354496,39.126620665],[-16.696354489,39.126620666],[-16.69624873,39.126620733],[-16.696248724,39.126620733],[-16.696248718,39.126620733],[-16.696248711,39.126620732],[-16.696248705,39.126620731],[-16.6962487,39.126620731],[-16.696248694,39.126620729],[-16.696248688,39.126620727],[-16.696248683,39.126620725],[-16.696248678,39.126620724],[-16.696248672,39.126620721],[-16.696248667,39.126620719],[-16.696248662,39.126620716],[-16.696248658,39.126620713],[-16.696248653,39.126620711],[-16.696248648,39.126620707],[-16.696248643,39.126620704],[-16.69624864,39.1266207],[-16.696248636,39.126620696],[-16.696248633,39.126620692],[-16.696248629,39.126620688],[-16.696248627,39.126620684],[-16.696248624,39.12662068],[-16.696248622,39.126620676],[-16.69624862,39.126620671],[-16.696248618,39.126620667],[-16.696248617,39.126620662],[-16.696248616,39.126620657],[-16.696248615,39.126620653],[-16.696248614,39.126620648],[-16.696248614,39.126620644],[-16.696247915,39.125960107],[-16.696247915,39.125960102],[-16.696247915,39.125960102],[-16.696247216,39.125299571],[-16.696247216,39.125299567],[-16.696247216,39.125299566],[-16.696246518,39.124639035],[-16.696246517,39.124639031],[-16.696246518,39.12463903],[-16.696245819,39.123978499],[-16.696245819,39.123978495],[-16.696245819,39.123978494],[-16.696245121,39.123317963],[-16.696245121,39.123317958],[-16.696245121,39.123317957],[-16.696244423,39.122657426],[-16.696244423,39.122657422],[-16.696244423,39.122657421],[-16.696243725,39.12199689],[-16.696243725,39.121996885],[-16.696243725,39.121996885],[-16.696243028,39.121336354],[-16.696243028,39.121336349],[-16.696243028,39.121336349],[-16.696242331,39.120675817],[-16.696241634,39.120015281],[-16.696241635,39.120015275],[-16.696241634,39.120015271],[-16.696241636,39.120015266],[-16.696241637,39.120015262],[-16.696241638,39.120015257],[-16.69624164,39.120015253],[-16.696241642,39.120015248],[-16.696241644,39.120015244],[-16.696241646,39.12001524],[-16.69624165,39.120015235],[-16.696241652,39.120015232],[-16.696241657,39.120015227],[-16.69624166,39.120015224],[-16.696241663,39.12001522],[-16.696241668,39.120015217],[-16.696241672,39.120015214],[-16.696241677,39.120015211],[-16.696241682,39.120015208],[-16.696241686,39.120015205],[-16.696241692,39.120015202],[-16.696241698,39.120015201],[-16.696241702,39.120015198],[-16.696241708,39.120015197],[-16.696241714,39.120015195],[-16.696241719,39.120015193],[-16.696241725,39.120015192],[-16.696241731,39.120015191],[-16.696241738,39.120015191],[-16.696241744,39.120015191],[-16.696241749,39.120015191],[-16.696347384,39.120015123],[-16.696347381,39.120012088],[-16.696347381,39.120012084],[-16.696347381,39.120012079],[-16.696347382,39.120012075],[-16.696347383,39.12001207],[-16.696347385,39.120012065],[-16.696347386,39.12001206],[-16.696347388,39.120012057],[-16.69634739,39.120012052],[-16.696347393,39.120012047],[-16.696347396,39.120012044],[-16.696347399,39.120012039],[-16.696347403,39.120012036],[-16.696347406,39.120012032],[-16.696347411,39.120012028],[-16.696347414,39.120012025],[-16.696347419,39.120012022],[-16.696347423,39.120012018],[-16.696347428,39.120012015],[-16.696347433,39.120012013],[-16.696347438,39.120012011],[-16.696347444,39.120012008],[-16.696347449,39.120012006],[-16.696347455,39.120012004],[-16.696347461,39.120012002],[-16.696347467,39.120012001],[-16.696347472,39.120012],[-16.696347478,39.120011999],[-16.696347484,39.120011998],[-16.69634749,39.120011998],[-16.696347496,39.120011998],[-16.69645313,39.12001193],[-16.696453127,39.120008896],[-16.696453127,39.120008892],[-16.696453128,39.120008886],[-16.696453129,39.120008882],[-16.69645313,39.120008877],[-16.696453131,39.120008873],[-16.696453133,39.120008868],[-16.696453134,39.120008864],[-16.696453137,39.120008859],[-16.69645314,39.120008856],[-16.696453142,39.120008851],[-16.696453145,39.120008847],[-16.696453149,39.120008843],[-16.696453152,39.120008839],[-16.696453157,39.120008836],[-16.696453161,39.120008833],[-16.696453165,39.120008829],[-16.69645317,39.120008826],[-16.696453175,39.120008824],[-16.69645318,39.120008821],[-16.696453185,39.120008818],[-16.69645319,39.120008816],[-16.696453196,39.120008814],[-16.696453201,39.120008812],[-16.696453207,39.120008811],[-16.696453213,39.12000881],[-16.696453219,39.120008808],[-16.696453224,39.120008808],[-16.69645323,39.120008807],[-16.696453237,39.120008806],[-16.696453243,39.120008806],[-16.696558876,39.120008738],[-16.696558873,39.120005704],[-16.696558874,39.120005699],[-16.696558874,39.120005695],[-16.696558875,39.12000569],[-16.696558876,39.120005686],[-16.696558877,39.120005681],[-16.696558879,39.120005677],[-16.696558882,39.120005672],[-16.696558884,39.120005667],[-16.696558886,39.120005663],[-16.696558889,39.120005659],[-16.696558893,39.120005655],[-16.696558896,39.120005651],[-16.6965589,39.120005647],[-16.696558903,39.120005644],[-16.696558907,39.12000564],[-16.696558912,39.120005637],[-16.696558917,39.120005634],[-16.696558921,39.120005631],[-16.696558926,39.120005628],[-16.696558931,39.120005626],[-16.696558937,39.120005623],[-16.696558942,39.120005622],[-16.696558947,39.12000562],[-16.696558953,39.120005619],[-16.696558959,39.120005617],[-16.696558965,39.120005616],[-16.696558972,39.120005615],[-16.696558977,39.120005615],[-16.696558983,39.120005614],[-16.696558989,39.120005614],[-16.696664624,39.120005546],[-16.69666462,39.120002512],[-16.69666462,39.120002507],[-16.696664621,39.120002503],[-16.696664621,39.120002497],[-16.696664622,39.120002493],[-16.696664624,39.120002488],[-16.696664625,39.120002484],[-16.696664628,39.120002479],[-16.69666463,39.120002475],[-16.696664632,39.120002471],[-16.696664635,39.120002466],[-16.696664639,39.120002463],[-16.696664642,39.120002459],[-16.696664646,39.120002455],[-16.69666465,39.120002452],[-16.696664654,39.120002448],[-16.696664658,39.120002444],[-16.696664663,39.120002442],[-16.696664667,39.120002439],[-16.696664673,39.120002436],[-16.696664677,39.120002433],[-16.696664683,39.120002431],[-16.696664689,39.12000243],[-16.696664695,39.120002428],[-16.6966647,39.120002426],[-16.696664706,39.120002425],[-16.696664712,39.120002424],[-16.696664718,39.120002423],[-16.696664723,39.120002422],[-16.696664729,39.120002422],[-16.696664736,39.120002422],[-16.69677037,39.120002354],[-16.696770366,39.11999932],[-16.696770366,39.119999314],[-16.696770367,39.11999931],[-16.696770368,39.119999305],[-16.696770369,39.119999301],[-16.696770371,39.119999296],[-16.696770373,39.119999292],[-16.696770374,39.119999287],[-16.696770377,39.119999283],[-16.696770379,39.119999278],[-16.696770382,39.119999274],[-16.696770385,39.11999927],[-16.696770388,39.119999266],[-16.696770393,39.119999262],[-16.696770396,39.119999259],[-16.696770401,39.119999255],[-16.696770405,39.119999252],[-16.69677041,39.119999249],[-16.696770414,39.119999246],[-16.696770419,39.119999243],[-16.696770425,39.119999241],[-16.696770429,39.119999239],[-16.696770435,39.119999237],[-16.696770441,39.119999235],[-16.696770447,39.119999234],[-16.696770452,39.119999232],[-16.696770458,39.119999231],[-16.696770464,39.11999923],[-16.69677047,39.11999923],[-16.696770476,39.119999229],[-16.696770482,39.119999229],[-16.696876116,39.11999916],[-16.696876113,39.119996127],[-16.696876114,39.119996122],[-16.696876113,39.119996118],[-16.696876114,39.119996112],[-16.696876116,39.119996108],[-16.696876117,39.119996103],[-16.696876119,39.119996099],[-16.696876121,39.119996094],[-16.696876123,39.11999609],[-16.696876125,39.119996086],[-16.696876129,39.119996081],[-16.696876132,39.119996078],[-16.696876136,39.119996074],[-16.696876139,39.11999607],[-16.696876142,39.119996067],[-16.696876147,39.119996063],[-16.696876151,39.119996059],[-16.696876156,39.119996057],[-16.696876161,39.119996054],[-16.696876166,39.119996051],[-16.696876171,39.119996048],[-16.696876177,39.119996046],[-16.696876181,39.119996044],[-16.696876187,39.119996043],[-16.696876193,39.119996041],[-16.696876198,39.11999604],[-16.696876204,39.119996039],[-16.696876211,39.119996038],[-16.696876217,39.119996037],[-16.696876223,39.119996037],[-16.696876228,39.119996037],[-16.696981863,39.119995968],[-16.69698186,39.119992934],[-16.69698186,39.119992929],[-16.696981861,39.119992924],[-16.696981861,39.11999292],[-16.696981862,39.119992915],[-16.696981864,39.119992911],[-16.696981865,39.119992906],[-16.696981867,39.119992902],[-16.696981869,39.119992897],[-16.696981873,39.119992893],[-16.696981875,39.119992889],[-16.696981878,39.119992884],[-16.696981882,39.119992881],[-16.696981885,39.119992877],[-16.69698189,39.119992874],[-16.696981893,39.11999287],[-16.696981897,39.119992867],[-16.696981902,39.119992864],[-16.696981908,39.119992861],[-16.696981912,39.119992859],[-16.696981917,39.119992856],[-16.696981923,39.119992854],[-16.696981928,39.119992851],[-16.696981934,39.119992849],[-16.69698194,39.119992848],[-16.696981946,39.119992847],[-16.696981951,39.119992846],[-16.696981957,39.119992845],[-16.696981963,39.119992845],[-16.696981969,39.119992844],[-16.696981976,39.119992843],[-16.697087609,39.119992776],[-16.697087606,39.119989741],[-16.697087606,39.119989737],[-16.697087607,39.119989732],[-16.697087608,39.119989728],[-16.697087609,39.119989722],[-16.69708761,39.119989718],[-16.697087612,39.119989713],[-16.697087613,39.119989709],[-16.697087616,39.119989705],[-16.697087619,39.1199897],[-16.697087621,39.119989696],[-16.697087624,39.119989692],[-16.697087628,39.119989688],[-16.697087632,39.119989685],[-16.697087636,39.119989681],[-16.69708764,39.119989677],[-16.697087645,39.119989674],[-16.697087649,39.119989671],[-16.697087654,39.119989668],[-16.697087658,39.119989666],[-16.697087664,39.119989664],[-16.697087669,39.119989661],[-16.697087674,39.119989659],[-16.69708768,39.119989657],[-16.697087686,39.119989655],[-16.697087692,39.119989654],[-16.697087697,39.119989653],[-16.697087703,39.119989652],[-16.69708771,39.119989651],[-16.697087716,39.119989651],[-16.697087722,39.119989651],[-16.697193356,39.119989583],[-16.697193353,39.119986549],[-16.697193353,39.119986544],[-16.697193353,39.119986539],[-16.697193354,39.119986534],[-16.697193355,39.11998653],[-16.697193356,39.119986525],[-16.697193358,39.119986521],[-16.69719336,39.119986516],[-16.697193363,39.119986512],[-16.697193365,39.119986508],[-16.697193368,39.119986503],[-16.697193371,39.1199865],[-16.697193375,39.119986495],[-16.697193378,39.119986491],[-16.697193382,39.119986488],[-16.697193386,39.119986485],[-16.697193391,39.119986481],[-16.697193395,39.119986479],[-16.6971934,39.119986476],[-16.697193406,39.119986473],[-16.69719341,39.11998647],[-16.697193416,39.119986468],[-16.697193422,39.119986466],[-16.697193426,39.119986465],[-16.697193432,39.119986463],[-16.697193438,39.119986462],[-16.697193445,39.11998646],[-16.69719345,39.11998646],[-16.697193456,39.119986459],[-16.697193462,39.119986459],[-16.697193468,39.119986459],[-16.697299102,39.11998639],[-16.697299099,39.119983355],[-16.697299099,39.119983351],[-16.6972991,39.119983346],[-16.6972991,39.119983342],[-16.697299101,39.119983337],[-16.697299103,39.119983333],[-16.697299104,39.119983328],[-16.697299106,39.119983324],[-16.697299109,39.119983319],[-16.697299112,39.119983314],[-16.697299114,39.119983311],[-16.697299117,39.119983306],[-16.697299121,39.119983303],[-16.697299124,39.119983299],[-16.697299129,39.119983295],[-16.697299132,39.119983292],[-16.697299137,39.119983289],[-16.697299141,39.119983285],[-16.697299147,39.119983282],[-16.697299152,39.11998328],[-16.697299156,39.119983278],[-16.697299162,39.119983275],[-16.697299168,39.119983273],[-16.697299173,39.119983271],[-16.697299179,39.119983269],[-16.697299185,39.119983268],[-16.697299191,39.119983267],[-16.697299196,39.119983266],[-16.697299202,39.119983265],[-16.697299208,39.119983265],[-16.697299215,39.119983265],[-16.697404848,39.119983196],[-16.697404845,39.119980163],[-16.697404846,39.119980158],[-16.697404846,39.119980153],[-16.697404847,39.119980148],[-16.697404848,39.119980144],[-16.697404849,39.119980139],[-16.697404851,39.119980135],[-16.697404853,39.11998013],[-16.697404856,39.119980125],[-16.697404858,39.119980122],[-16.697404861,39.119980117],[-16.697404864,39.119980114],[-16.697404867,39.119980109],[-16.697404871,39.119980105],[-16.697404875,39.119980102],[-16.697404879,39.119980099],[-16.697404884,39.119980095],[-16.697404888,39.119980093],[-16.697404893,39.11998009],[-16.697404898,39.119980087],[-16.697404903,39.119980084],[-16.697404908,39.119980082],[-16.697404914,39.11998008],[-16.697404919,39.119980079],[-16.697404925,39.119980077],[-16.697404931,39.119980076],[-16.697404937,39.119980075],[-16.697404942,39.119980074],[-16.697404949,39.119980073],[-16.697404955,39.119980073],[-16.697404961,39.119980073],[-16.697510595,39.119980004],[-16.697510592,39.119976969],[-16.697510592,39.119976964],[-16.697510592,39.11997696],[-16.697510593,39.119976955],[-16.697510594,39.119976951],[-16.697510595,39.119976946],[-16.697510597,39.119976942],[-16.697510599,39.119976937],[-16.697510602,39.119976933],[-16.697510604,39.119976928],[-16.697510607,39.119976925],[-16.697510611,39.11997692],[-16.697510614,39.119976916],[-16.697510617,39.119976913],[-16.697510622,39.119976909],[-16.697510625,39.119976905],[-16.69751063,39.119976903],[-16.697510634,39.119976899],[-16.697510639,39.119976896],[-16.697510645,39.119976893],[-16.697510649,39.119976891],[-16.697510655,39.119976889],[-16.697510661,39.119976887],[-16.697510665,39.119976885],[-16.697510671,39.119976884],[-16.697510677,39.119976882],[-16.697510684,39.119976881],[-16.69751069,39.11997688],[-16.697510695,39.11997688],[-16.697510701,39.119976879],[-16.697510707,39.119976879],[-16.697616341,39.11997681],[-16.697616338,39.119973776],[-16.697616338,39.119973772],[-16.697616339,39.119973767],[-16.697616339,39.119973762],[-16.697616341,39.119973757],[-16.697616342,39.119973753],[-16.697616343,39.119973748],[-16.697616345,39.119973744],[-16.697616348,39.11997374],[-16.697616351,39.119973735],[-16.697616353,39.119973731],[-16.697616357,39.119973727],[-16.69761636,39.119973724],[-16.697616363,39.119973719],[-16.697616368,39.119973716],[-16.697616372,39.119973713],[-16.697616376,39.119973709],[-16.69761638,39.119973706],[-16.697616386,39.119973703],[-16.697616391,39.119973701],[-16.697616396,39.119973698],[-16.697616401,39.119973696],[-16.697616407,39.119973694],[-16.697616412,39.119973692],[-16.697616418,39.11997369],[-16.697616424,39.119973689],[-16.69761643,39.119973688],[-16.697616435,39.119973687],[-16.697616441,39.119973686],[-16.697616448,39.119973686],[-16.697616454,39.119973686],[-16.697722087,39.119973617],[-16.697722084,39.119970583],[-16.697722085,39.119970578],[-16.697722085,39.119970573],[-16.697722086,39.119970569],[-16.697722087,39.119970564],[-16.697722088,39.11997056],[-16.69772209,39.119970555],[-16.697722093,39.119970551],[-16.697722095,39.119970546],[-16.697722097,39.119970542],[-16.6977221,39.119970538],[-16.697722103,39.119970533],[-16.697722106,39.11997053],[-16.697722111,39.119970526],[-16.697722114,39.119970522],[-16.697722118,39.119970519],[-16.697722123,39.119970516],[-16.697722128,39.119970513],[-16.697722132,39.11997051],[-16.697722137,39.119970508],[-16.697722142,39.119970505],[-16.697722148,39.119970502],[-16.697722153,39.1199705],[-16.697722158,39.119970498],[-16.697722164,39.119970497],[-16.69772217,39.119970495],[-16.697722176,39.119970494],[-16.697722181,39.119970493],[-16.697722188,39.119970493],[-16.697722194,39.119970492],[-16.6977222,39.119970492],[-16.697827835,39.119970423],[-16.697827831,39.119967389],[-16.697827831,39.119967385],[-16.697827831,39.11996738],[-16.697827832,39.119967376],[-16.697827833,39.11996737],[-16.697827835,39.119967366],[-16.697827836,39.119967361],[-16.697827839,39.119967357],[-16.697827841,39.119967353],[-16.697827843,39.119967349],[-16.697827846,39.119967344],[-16.69782785,39.11996734],[-16.697827853,39.119967337],[-16.697827856,39.119967333],[-16.697827861,39.119967329],[-16.697827864,39.119967326],[-16.697827869,39.119967322],[-16.697827874,39.119967319],[-16.697827878,39.119967316],[-16.697827884,39.119967314],[-16.697827888,39.119967311],[-16.697827894,39.119967309],[-16.6978279,39.119967307],[-16.697827906,39.119967305],[-16.69782791,39.119967303],[-16.697827917,39.119967302],[-16.697827923,39.119967301],[-16.697827929,39.1199673],[-16.697827934,39.119967299],[-16.69782794,39.119967299],[-16.697827946,39.119967299],[-16.69793358,39.11996723],[-16.697933577,39.119964196],[-16.697933577,39.119964191],[-16.697933578,39.119964186],[-16.697933579,39.119964182],[-16.69793358,39.119964177],[-16.697933581,39.119964173],[-16.697933582,39.119964168],[-16.697933585,39.119964164],[-16.697933587,39.119964159],[-16.69793359,39.119964155],[-16.697933592,39.119964151],[-16.697933596,39.119964147],[-16.697933599,39.119964143],[-16.697933602,39.119964139],[-16.697933607,39.119964135],[-16.697933612,39.119964133],[-16.697933615,39.119964129],[-16.697933619,39.119964126],[-16.697933625,39.119964123],[-16.69793363,39.119964121],[-16.697933635,39.119964118],[-16.69793364,39.119964116],[-16.697933646,39.119964113],[-16.697933652,39.119964112],[-16.697933657,39.11996411],[-16.697933663,39.119964108],[-16.697933669,39.119964107],[-16.697933675,39.119964106],[-16.69793368,39.119964106],[-16.697933687,39.119964106],[-16.697933693,39.119964106],[-16.698039326,39.119964037],[-16.698039323,39.119961002],[-16.698039324,39.119960998],[-16.698039324,39.119960993],[-16.698039325,39.119960989],[-16.698039326,39.119960984],[-16.698039327,39.119960979],[-16.698039329,39.119960974],[-16.698039332,39.11996097],[-16.698039334,39.119960966],[-16.698039336,39.119960961],[-16.698039339,39.119960958],[-16.698039343,39.119960953],[-16.698039346,39.119960949],[-16.69803935,39.119960946],[-16.698039353,39.119960942],[-16.698039357,39.119960938],[-16.698039362,39.119960936],[-16.698039367,39.119960932],[-16.698039371,39.119960929],[-16.698039376,39.119960927],[-16.698039381,39.119960925],[-16.698039387,39.119960922],[-16.698039392,39.11996092],[-16.698039397,39.119960918],[-16.698039403,39.119960916],[-16.698039409,39.119960915],[-16.698039415,39.119960914],[-16.698039422,39.119960913],[-16.698039427,39.119960912],[-16.698039433,39.119960912],[-16.698039439,39.119960912],[-16.698145073,39.119960843],[-16.69814507,39.119957809],[-16.69814507,39.119957804],[-16.69814507,39.119957799],[-16.698145071,39.119957794],[-16.698145072,39.11995779],[-16.698145074,39.119957785],[-16.698145075,39.119957781],[-16.698145078,39.119957776],[-16.69814508,39.119957772],[-16.698145082,39.119957768],[-16.698145085,39.119957763],[-16.698145089,39.11995776],[-16.698145092,39.119957755],[-16.698145095,39.119957752],[-16.6981451,39.119957748],[-16.698145103,39.119957745],[-16.698145108,39.119957742],[-16.698145112,39.119957739],[-16.698145117,39.119957736],[-16.698145123,39.119957733],[-16.698145127,39.11995773],[-16.698145133,39.119957729],[-16.698145139,39.119957727],[-16.698145145,39.119957725],[-16.69814515,39.119957723],[-16.698145156,39.119957722],[-16.698145162,39.11995772],[-16.698145168,39.11995772],[-16.698145173,39.119957719],[-16.698145179,39.119957719],[-16.698145186,39.119957719],[-16.69825082,39.119957649],[-16.698250817,39.119954732],[-16.698250816,39.119954727],[-16.698250818,39.119954723],[-16.698250817,39.119954718],[-16.698250818,39.119954714],[-16.698250821,39.119954709],[-16.698250822,39.119954704],[-16.698250824,39.1199547],[-16.698250826,39.119954695],[-16.698250828,39.119954692],[-16.698250832,39.119954687],[-16.698250835,39.119954684],[-16.698250838,39.119954679],[-16.698250842,39.119954675],[-16.698250846,39.119954672],[-16.69825085,39.119954669],[-16.698250854,39.119954665],[-16.698250859,39.119954662],[-16.698250863,39.11995466],[-16.698250869,39.119954657],[-16.698250874,39.119954654],[-16.698250879,39.119954652],[-16.698250885,39.119954649],[-16.698250891,39.119954648],[-16.698250897,39.119954647],[-16.698250902,39.119954645],[-16.698250908,39.119954644],[-16.698250914,39.119954643],[-16.69825092,39.119954643],[-16.698250925,39.119954643],[-16.698250932,39.119954642],[-16.698356682,39.119954573],[-16.698356687,39.119954573],[-16.698356693,39.119954573],[-16.6983567,39.119954573],[-16.698356706,39.119954574],[-16.698356712,39.119954575],[-16.698356718,39.119954577],[-16.698356723,39.119954579],[-16.698356728,39.11995458],[-16.698356734,39.119954582],[-16.69835674,39.119954585],[-16.698356744,39.119954587],[-16.698356749,39.11995459],[-16.698356754,39.119954593],[-16.698356759,39.119954595],[-16.698356763,39.119954599],[-16.698356768,39.119954602],[-16.698356771,39.119954606],[-16.698356775,39.119954609],[-16.698356779,39.119954614],[-16.698356782,39.119954617],[-16.698356785,39.119954622],[-16.698356787,39.119954626],[-16.698356789,39.11995463],[-16.698356792,39.119954634],[-16.698356793,39.119954639],[-16.698356794,39.119954644],[-16.698356796,39.119954649],[-16.698356797,39.119954653],[-16.698356797,39.119954658],[-16.698356797,39.119954662],[-16.698356805,39.119961901],[-16.698462439,39.119961831],[-16.698462445,39.119961832],[-16.698462452,39.119961832],[-16.698462458,39.119961833],[-16.698462463,39.119961833],[-16.698462469,39.119961834],[-16.698462475,39.119961836],[-16.698462481,39.119961838],[-16.698462487,39.119961839],[-16.698462491,39.119961841],[-16.698462497,39.119961844],[-16.698462502,39.119961846],[-16.698462508,39.119961849],[-16.698462512,39.119961852],[-16.698462517,39.119961854],[-16.698462521,39.119961858],[-16.698462525,39.119961861],[-16.698462529,39.119961865],[-16.698462533,39.119961868],[-16.698462536,39.119961872],[-16.69846254,39.119961876],[-16.698462542,39.119961881],[-16.698462545,39.119961885],[-16.698462547,39.119961889],[-16.698462549,39.119961893],[-16.698462551,39.119961898],[-16.698462552,39.119961902],[-16.698462553,39.119961908],[-16.698462554,39.119961912],[-16.698462555,39.119961917],[-16.698462555,39.119961921],[-16.698462563,39.11996916],[-16.698568197,39.11996909],[-16.698568202,39.119969091],[-16.698568209,39.119969091],[-16.698568215,39.119969092],[-16.698568221,39.119969093],[-16.698568227,39.119969093],[-16.698568233,39.119969095],[-16.698568238,39.119969097],[-16.698568244,39.119969098],[-16.698568249,39.1199691],[-16.698568255,39.119969103],[-16.698568259,39.119969105],[-16.698568265,39.119969107],[-16.69856827,39.119969111],[-16.698568275,39.119969113],[-16.698568278,39.119969117],[-16.698568283,39.11996912],[-16.698568287,39.119969124],[-16.69856829,39.119969128],[-16.698568294,39.119969131],[-16.698568297,39.119969136],[-16.6985683,39.11996914],[-16.698568303,39.119969144],[-16.698568304,39.119969148],[-16.698568307,39.119969153],[-16.698568308,39.119969157],[-16.698568311,39.119969161],[-16.698568311,39.119969166],[-16.698568312,39.119969171],[-16.698568312,39.119969176],[-16.698568312,39.11996918],[-16.69856832,39.119976419],[-16.698673954,39.119976349],[-16.698673961,39.119976349],[-16.698673967,39.11997635],[-16.698673973,39.119976351],[-16.698673979,39.119976351],[-16.698673984,39.119976352],[-16.69867399,39.119976354],[-16.698673996,39.119976355],[-16.698674002,39.119976357],[-16.698674008,39.119976359],[-16.698674012,39.119976361],[-16.698674018,39.119976364],[-16.698674023,39.119976366],[-16.698674028,39.11997637],[-16.698674032,39.119976372],[-16.698674037,39.119976376],[-16.698674041,39.119976379],[-16.698674044,39.119976383],[-16.698674048,39.119976387],[-16.698674051,39.11997639],[-16.698674055,39.119976395],[-16.698674057,39.119976398],[-16.698674061,39.119976403],[-16.698674063,39.119976407],[-16.698674064,39.119976411],[-16.698674067,39.119976416],[-16.698674068,39.11997642],[-16.698674069,39.119976425],[-16.698674069,39.119976429],[-16.69867407,39.119976435],[-16.698674071,39.119976439],[-16.698674074,39.119979306],[-16.698779592,39.119979236],[-16.698779591,39.119978685],[-16.698779591,39.11997868],[-16.698779592,39.119978676],[-16.698779593,39.119978671],[-16.698779594,39.119978667],[-16.698779595,39.119978662],[-16.698779597,39.119978658],[-16.698779599,39.119978653],[-16.698779601,39.119978649],[-16.698779604,39.119978644],[-16.698779606,39.11997864],[-16.69877961,39.119978636],[-16.698779613,39.119978632],[-16.698779616,39.119978628],[-16.698779621,39.119978625],[-16.698779626,39.119978621],[-16.698779629,39.119978618],[-16.698779635,39.119978615],[-16.698779639,39.119978612],[-16.698779644,39.119978609],[-16.698779649,39.119978607],[-16.698779654,39.119978604],[-16.69877966,39.119978603],[-16.698779666,39.119978601],[-16.698779671,39.119978599],[-16.698779677,39.119978598],[-16.698779683,39.119978597],[-16.698779689,39.119978596],[-16.698779694,39.119978595],[-16.698779701,39.119978595],[-16.698779707,39.119978595],[-16.698885341,39.119978525],[-16.698885337,39.119975201],[-16.698885337,39.119975197],[-16.698885338,39.119975192],[-16.698885339,39.119975187],[-16.69888534,39.119975183],[-16.698885341,39.119975178],[-16.698885343,39.119975173],[-16.698885344,39.119975169],[-16.698885348,39.119975164],[-16.69888535,39.119975161],[-16.698885352,39.119975156],[-16.698885356,39.119975153],[-16.698885359,39.119975148],[-16.698885363,39.119975144],[-16.698885367,39.119975141],[-16.698885371,39.119975138],[-16.698885376,39.119975134],[-16.69888538,39.119975131],[-16.698885385,39.119975129],[-16.69888539,39.119975126],[-16.698885395,39.119975123],[-16.6988854,39.119975121],[-16.698885406,39.119975119],[-16.698885411,39.119975118],[-16.698885417,39.119975116],[-16.698885423,39.119975114],[-16.698885429,39.119975113],[-16.698885434,39.119975112],[-16.69888544,39.119975112],[-16.698885447,39.119975112],[-16.698885453,39.119975112],[-16.698991087,39.119975041],[-16.698991082,39.119970826],[-16.698991082,39.119970821],[-16.698991083,39.119970816],[-16.698991083,39.119970812],[-16.698991085,39.119970807],[-16.698991086,39.119970803],[-16.698991087,39.119970798],[-16.69899109,39.119970794],[-16.698991092,39.119970789],[-16.698991095,39.119970785],[-16.698991097,39.119970781],[-16.698991101,39.119970776],[-16.698991104,39.119970773],[-16.698991108,39.119970769],[-16.698991112,39.119970765],[-16.698991115,39.119970762],[-16.69899112,39.119970759],[-16.698991125,39.119970755],[-16.69899113,39.119970753],[-16.698991135,39.11997075],[-16.698991139,39.119970748],[-16.698991145,39.119970745],[-16.698991151,39.119970743],[-16.698991157,39.119970741],[-16.698991162,39.11997074],[-16.698991168,39.119970738],[-16.698991174,39.119970737],[-16.69899118,39.119970736],[-16.698991185,39.119970736],[-16.698991191,39.119970735],[-16.698991198,39.119970735],[-16.699096832,39.119970665],[-16.699096828,39.11996645],[-16.699096827,39.119966445],[-16.699096827,39.119966441],[-16.699096828,39.119966436],[-16.699096829,39.119966432],[-16.699096832,39.119966427],[-16.699096833,39.119966423],[-16.699096835,39.119966418],[-16.699096837,39.119966414],[-16.699096839,39.119966409],[-16.699096843,39.119966406],[-16.699096846,39.119966401],[-16.699096849,39.119966397],[-16.699096853,39.119966394],[-16.699096857,39.11996639],[-16.699096861,39.119966386],[-16.699096865,39.119966384],[-16.69909687,39.11996638],[-16.699096874,39.119966377],[-16.69909688,39.119966374],[-16.699096885,39.119966372],[-16.69909689,39.11996637],[-16.699096896,39.119966368],[-16.699096902,39.119966366],[-16.699096908,39.119966364],[-16.699096913,39.119966363],[-16.699096919,39.119966362],[-16.699096925,39.119966361],[-16.699096931,39.119966361],[-16.699096936,39.11996636],[-16.699096942,39.11996636],[-16.699202576,39.11996629],[-16.699202572,39.119962074],[-16.699202573,39.11996207],[-16.699202573,39.119962065],[-16.699202574,39.119962061],[-16.699202575,39.119962055],[-16.699202576,39.119962051],[-16.699202578,39.119962046],[-16.69920258,39.119962042],[-16.699202582,39.119962038],[-16.699202585,39.119962034],[-16.699202588,39.119962029],[-16.699202591,39.119962025],[-16.699202595,39.119962022],[-16.699202598,39.119962018],[-16.699202601,39.119962014],[-16.699202606,39.119962011],[-16.699202611,39.119962007],[-16.699202615,39.119962004],[-16.69920262,39.119962002],[-16.699202625,39.119961999],[-16.69920263,39.119961996],[-16.699202636,39.119961994],[-16.69920264,39.119961992],[-16.699202646,39.11996199],[-16.699202652,39.119961989],[-16.699202657,39.119961988],[-16.699202663,39.119961987],[-16.69920267,39.119961986],[-16.699202676,39.119961985],[-16.699202682,39.119961984],[-16.699202687,39.119961984],[-16.699308321,39.119961914],[-16.699308317,39.119957699],[-16.699308317,39.119957694],[-16.699308318,39.119957689],[-16.699308319,39.119957684],[-16.69930832,39.11995768],[-16.699308321,39.119957675],[-16.699308323,39.119957671],[-16.699308325,39.119957666],[-16.699308328,39.119957662],[-16.69930833,39.119957658],[-16.699308333,39.119957653],[-16.699308335,39.11995765],[-16.699308339,39.119957646],[-16.699308343,39.119957642],[-16.699308347,39.119957638],[-16.699308351,39.119957635],[-16.699308356,39.119957632],[-16.69930836,39.119957629],[-16.699308365,39.119957626],[-16.699308369,39.119957623],[-16.699308375,39.11995762],[-16.69930838,39.119957619],[-16.699308385,39.119957617],[-16.699308391,39.119957615],[-16.699308397,39.119957613],[-16.699308403,39.119957612],[-16.699308408,39.119957611],[-16.699308414,39.11995761],[-16.699308421,39.119957609],[-16.699308427,39.119957609],[-16.699308433,39.119957609],[-16.699414067,39.119957538],[-16.699414062,39.119953323],[-16.699414062,39.119953319],[-16.699414063,39.119953313],[-16.699414064,39.119953309],[-16.699414065,39.119953304],[-16.699414066,39.1199533],[-16.699414067,39.119953295],[-16.699414069,39.119953291],[-16.699414072,39.119953286],[-16.699414075,39.119953282],[-16.699414077,39.119953278],[-16.699414081,39.119953274],[-16.699414084,39.11995327],[-16.699414087,39.119953266],[-16.699414092,39.119953262],[-16.699414096,39.11995326],[-16.6994141,39.119953256],[-16.699414104,39.119953253],[-16.69941411,39.11995325],[-16.699414115,39.119953248],[-16.69941412,39.119953245],[-16.699414125,39.119953243],[-16.699414131,39.11995324],[-16.699414136,39.119953239],[-16.699414142,39.119953237],[-16.699414148,39.119953235],[-16.699414154,39.119953234],[-16.699414159,39.119953233],[-16.699414165,39.119953233],[-16.699414172,39.119953233],[-16.699414178,39.119953233],[-16.699519812,39.119953162],[-16.699519807,39.119948947],[-16.699519807,39.119948942],[-16.699519808,39.119948937],[-16.699519808,39.119948933],[-16.699519809,39.119948928],[-16.699519811,39.119948924],[-16.699519812,39.119948919],[-16.699519815,39.119948915],[-16.699519817,39.11994891],[-16.699519819,39.119948906],[-16.699519822,39.119948902],[-16.699519826,39.119948897],[-16.699519829,39.119948894],[-16.699519832,39.11994889],[-16.699519837,39.119948886],[-16.69951984,39.119948883],[-16.699519845,39.11994888],[-16.699519849,39.119948876],[-16.699519854,39.119948874],[-16.69951986,39.119948871],[-16.699519864,39.119948869],[-16.69951987,39.119948866],[-16.699519876,39.119948864],[-16.699519882,39.119948862],[-16.699519887,39.119948861],[-16.699519893,39.11994886],[-16.699519899,39.119948859],[-16.699519905,39.119948858],[-16.69951991,39.119948857],[-16.699519916,39.119948857],[-16.699519923,39.119948856],[-16.699625557,39.119948786],[-16.699625552,39.119944571],[-16.699625552,39.119944566],[-16.699625552,39.119944562],[-16.699625553,39.119944557],[-16.699625554,39.119944552],[-16.699625555,39.119944548],[-16.699625558,39.119944543],[-16.69962556,39.119944539],[-16.699625562,39.119944534],[-16.699625564,39.11994453],[-16.699625567,39.119944526],[-16.699625571,39.119944522],[-16.699625574,39.119944518],[-16.699625578,39.119944514],[-16.699625581,39.119944511],[-16.699625586,39.119944507],[-16.69962559,39.119944504],[-16.699625595,39.119944501],[-16.699625599,39.119944498],[-16.699625605,39.119944495],[-16.69962561,39.119944493],[-16.699625615,39.11994449],[-16.699625621,39.119944488],[-16.699625626,39.119944487],[-16.699625631,39.119944485],[-16.699625637,39.119944484],[-16.699625643,39.119944483],[-16.69962565,39.119944482],[-16.699625655,39.119944482],[-16.699625661,39.119944481],[-16.699625667,39.119944481],[-16.699731301,39.11994441],[-16.699731296,39.119940195],[-16.699731297,39.11994019],[-16.699731297,39.119940186],[-16.699731298,39.119940181],[-16.699731299,39.119940176],[-16.6997313,39.119940171],[-16.699731303,39.119940167],[-16.699731305,39.119940162],[-16.699731307,39.119940158],[-16.699731309,39.119940154],[-16.699731313,39.119940149],[-16.699731315,39.119940146],[-16.699731318,39.119940142],[-16.699731323,39.119940138],[-16.699731326,39.119940135],[-16.699731331,39.119940131],[-16.699731335,39.119940127],[-16.69973134,39.119940125],[-16.699731344,39.119940122],[-16.699731349,39.119940119],[-16.699731355,39.119940116],[-16.69973136,39.119940114],[-16.699731365,39.119940112],[-16.699731371,39.119940111],[-16.699731376,39.119940109],[-16.699731382,39.119940108],[-16.699731388,39.119940107],[-16.699731394,39.119940106],[-16.699731401,39.119940105],[-16.699731406,39.119940105],[-16.699731412,39.119940105],[-16.699837046,39.119940034],[-16.699837041,39.119935818],[-16.699837041,39.119935814],[-16.699837042,39.119935809],[-16.699837043,39.119935804],[-16.699837045,39.1199358],[-16.699837046,39.119935795],[-16.699837048,39.11993579],[-16.699837049,39.119935786],[-16.699837051,39.119935781],[-16.699837054,39.119935778],[-16.699837057,39.119935773],[-16.69983706,39.11993577],[-16.699837063,39.119935766],[-16.699837067,39.119935761],[-16.699837071,39.119935758],[-16.699837076,39.119935755],[-16.69983708,39.119935751],[-16.699837085,39.119935748],[-16.699837089,39.119935746],[-16.699837094,39.119935743],[-16.6998371,39.11993574],[-16.699837104,39.119935738],[-16.69983711,39.119935736],[-16.699837116,39.119935734],[-16.699837122,39.119935733],[-16.699837127,39.119935732],[-16.699837133,39.119935731],[-16.699837139,39.11993573],[-16.699837145,39.119935729],[-16.699837152,39.119935729],[-16.699837157,39.119935728],[-16.699942791,39.119935657],[-16.699942787,39.119931442],[-16.699942787,39.119931438],[-16.699942788,39.119931432],[-16.699942787,39.119931428],[-16.699942788,39.119931423],[-16.699942791,39.119931419],[-16.699942792,39.119931414],[-16.699942794,39.11993141],[-16.699942796,39.119931405],[-16.6999428,39.119931402],[-16.699942802,39.119931397],[-16.699942805,39.119931393],[-16.699942808,39.119931389],[-16.699942812,39.119931385],[-16.699942816,39.119931381],[-16.69994282,39.119931379],[-16.699942824,39.119931375],[-16.699942829,39.119931372],[-16.699942835,39.11993137],[-16.699942839,39.119931367],[-16.699942844,39.119931364],[-16.699942849,39.119931362],[-16.699942855,39.119931359],[-16.699942861,39.119931358],[-16.699942867,39.119931356],[-16.699942872,39.119931355],[-16.699942878,39.119931354],[-16.699942884,39.119931353],[-16.69994289,39.119931352],[-16.699942895,39.119931352],[-16.699942902,39.119931352],[-16.700048536,39.119931281],[-16.700048532,39.119927066],[-16.700048532,39.119927061],[-16.700048531,39.119927056],[-16.700048533,39.119927052],[-16.700048534,39.119927047],[-16.700048535,39.119927043],[-16.700048537,39.119927038],[-16.700048539,39.119927033],[-16.700048541,39.119927029],[-16.700048543,39.119927024],[-16.700048547,39.119927021],[-16.70004855,39.119927016],[-16.700048554,39.119927013],[-16.700048557,39.119927009],[-16.700048561,39.119927005],[-16.700048565,39.119927002],[-16.700048569,39.119926999],[-16.700048574,39.119926995],[-16.700048579,39.119926992],[-16.700048584,39.11992699],[-16.700048589,39.119926988],[-16.700048595,39.119926985],[-16.7000486,39.119926983],[-16.700048605,39.119926981],[-16.700048611,39.11992698],[-16.700048616,39.119926978],[-16.700048623,39.119926977],[-16.700048629,39.119926976],[-16.700048635,39.119926976],[-16.700048641,39.119926975],[-16.700048646,39.119926975],[-16.70015428,39.119926904],[-16.700154276,39.119922689],[-16.700154277,39.119922684],[-16.700154277,39.11992268],[-16.700154278,39.119922675],[-16.700154279,39.119922671],[-16.70015428,39.119922666],[-16.700154282,39.119922662],[-16.700154284,39.119922657],[-16.700154286,39.119922653],[-16.700154289,39.119922648],[-16.700154292,39.119922644],[-16.700154295,39.11992264],[-16.700154299,39.119922636],[-16.700154302,39.119922633],[-16.700154305,39.119922629],[-16.70015431,39.119922625],[-16.700154315,39.119922622],[-16.700154319,39.119922619],[-16.700154324,39.119922616],[-16.700154328,39.119922613],[-16.700154334,39.119922611],[-16.70015434,39.119922609],[-16.700154344,39.119922607],[-16.70015435,39.119922605],[-16.700154356,39.119922603],[-16.700154361,39.119922602],[-16.700154367,39.119922601],[-16.700154374,39.1199226],[-16.70015438,39.1199226],[-16.700154386,39.119922599],[-16.700154391,39.119922599],[-16.700260025,39.119922527],[-16.700260021,39.119918312],[-16.700260021,39.119918308],[-16.700260022,39.119918303],[-16.700260023,39.119918299],[-16.700260024,39.119918293],[-16.700260025,39.119918289],[-16.700260027,39.119918284],[-16.700260028,39.11991828],[-16.700260031,39.119918276],[-16.700260034,39.119918272],[-16.700260036,39.119918267],[-16.700260039,39.119918263],[-16.700260043,39.11991826],[-16.700260047,39.119918256],[-16.70026005,39.119918252],[-16.700260055,39.119918249],[-16.70026006,39.119918245],[-16.700260064,39.119918242],[-16.700260069,39.11991824],[-16.700260073,39.119918237],[-16.700260079,39.119918234],[-16.700260084,39.119918232],[-16.700260089,39.11991823],[-16.700260095,39.119918228],[-16.700260101,39.119918226],[-16.700260106,39.119918225],[-16.700260112,39.119918224],[-16.700260118,39.119918223],[-16.700260124,39.119918223],[-16.700260131,39.119918222],[-16.700260136,39.119918222],[-16.70036577,39.119918151],[-16.700365766,39.119913936],[-16.700365766,39.119913931],[-16.700365767,39.119913926],[-16.700365767,39.119913921],[-16.700365768,39.119913917],[-16.70036577,39.119913912],[-16.700365771,39.119913908],[-16.700365773,39.119913903],[-16.700365775,39.119913899],[-16.700365779,39.119913895],[-16.700365781,39.11991389],[-16.700365784,39.119913887],[-16.700365788,39.119913883],[-16.700365791,39.119913879],[-16.700365795,39.119913875],[-16.700365799,39.119913872],[-16.700365803,39.119913869],[-16.700365808,39.119913866],[-16.700365814,39.119913863],[-16.700365818,39.11991386],[-16.700365823,39.119913857],[-16.700365829,39.119913856],[-16.700365834,39.119913854],[-16.70036584,39.119913852],[-16.700365846,39.11991385],[-16.700365852,39.119913849],[-16.700365857,39.119913848],[-16.700365863,39.119913847],[-16.700365869,39.119913846],[-16.700365875,39.119913846],[-16.700365882,39.119913846],[-16.700471515,39.119913774],[-16.700471511,39.119909559],[-16.700471511,39.119909555],[-16.700471511,39.119909549],[-16.700471512,39.119909545],[-16.700471513,39.11990954],[-16.700471515,39.119909536],[-16.700471516,39.119909531],[-16.700471518,39.119909527],[-16.70047152,39.119909522],[-16.700471523,39.119909518],[-16.700471526,39.119909514],[-16.700471529,39.11990951],[-16.700471533,39.119909506],[-16.700471536,39.119909502],[-16.700471541,39.119909498],[-16.700471544,39.119909496],[-16.700471548,39.119909492],[-16.700471553,39.119909489],[-16.700471558,39.119909486],[-16.700471563,39.119909484],[-16.700471568,39.119909481],[-16.700471574,39.119909479],[-16.700471579,39.119909476],[-16.700471585,39.119909475],[-16.70047159,39.119909473],[-16.700471597,39.119909471],[-16.700471602,39.11990947],[-16.700471608,39.119909469],[-16.700471614,39.119909469],[-16.70047162,39.119909469],[-16.700471625,39.119909469],[-16.700577376,39.119909397],[-16.700577381,39.119909397],[-16.700577387,39.119909397],[-16.700577394,39.119909398],[-16.7005774,39.119909399],[-16.700577406,39.119909401],[-16.700577412,39.119909401]]]}}
]
}
